{"type":"FeatureCollection", "features": [
{"type":"Feature","geometry":{"type":"Polygon","coordinates":[[[-113.344604,53.441574],[-113.344587,53.453888],[-113.344284,53.453888],[-113.344277,53.457005],[-113.344384,53.458413],[-113.34464,53.459862],[-113.34468,53.460277],[-113.344698,53.46184],[-113.344738,53.465767],[-113.344759,53.466372],[-113.34475,53.469303],[-113.344682,53.471081],[-113.344621,53.471831],[-113.344461,53.473114],[-113.344183,53.475614],[-113.344042,53.477067],[-113.344068,53.479365],[-113.344232,53.479977],[-113.344499,53.480279],[-113.345886,53.48129],[-113.346544,53.481567],[-113.348939,53.482181],[-113.35198,53.482323],[-113.356513,53.48233],[-113.356512,53.483076],[-113.356527,53.483509],[-113.348636,53.483886],[-113.346806,53.484383],[-113.344519,53.486411],[-113.34354,53.48674],[-113.343679,53.488397],[-113.343842,53.489245],[-113.344685,53.494867],[-113.345086,53.498141],[-113.345126,53.503674],[-113.345094,53.504471],[-113.345089,53.508129],[-113.345107,53.509017],[-113.345224,53.509018],[-113.345287,53.509833],[-113.345999,53.511028],[-113.346383,53.511327],[-113.346706,53.511333],[-113.346971,53.511599],[-113.348125,53.511923],[-113.349224,53.512025],[-113.350642,53.512047],[-113.350634,53.513343],[-113.353682,53.513988],[-113.3546,53.513785],[-113.355008,53.513551],[-113.35683,53.512143],[-113.357025,53.512145],[-113.36015,53.512194],[-113.36015,53.512538],[-113.358625,53.512555],[-113.35765,53.512722],[-113.357104,53.51301],[-113.355327,53.514373],[-113.357011,53.514655],[-113.357011,53.514727],[-113.35885,53.515036],[-113.359322,53.515044],[-113.361319,53.515379],[-113.362874,53.515612],[-113.363056,53.515742],[-113.363544,53.515824],[-113.368611,53.515798],[-113.368686,53.51525],[-113.369882,53.515198],[-113.37011,53.515715],[-113.370595,53.515981],[-113.373062,53.516779],[-113.374323,53.517019],[-113.375211,53.517056],[-113.380277,53.517027],[-113.386091,53.516853],[-113.386538,53.516728],[-113.391222,53.516535],[-113.393532,53.516125],[-113.393883,53.516086],[-113.394047,53.516068],[-113.394052,53.516885],[-113.394088,53.526663],[-113.394128,53.533933],[-113.394043,53.540751],[-113.394015,53.541356],[-113.401573,53.541364],[-113.401575,53.541853],[-113.401473,53.556094],[-113.400267,53.555085],[-113.39967,53.554537],[-113.398867,53.553975],[-113.398271,53.553706],[-113.39699,53.55278],[-113.396259,53.552352],[-113.395971,53.552264],[-113.394991,53.551718],[-113.393431,53.551038],[-113.392739,53.55083],[-113.392206,53.550784],[-113.391374,53.550616],[-113.390433,53.550627],[-113.390074,53.550752],[-113.389573,53.550783],[-113.388764,53.550742],[-113.387127,53.550744],[-113.386125,53.550885],[-113.385142,53.551103],[-113.384309,53.55135],[-113.383204,53.551859],[-113.382146,53.552165],[-113.381459,53.552545],[-113.380288,53.553406],[-113.379663,53.554139],[-113.379354,53.554745],[-113.379248,53.555323],[-113.379028,53.555787],[-113.379086,53.556105],[-113.37876,53.556756],[-113.378539,53.557366],[-113.378271,53.557687],[-113.378016,53.558178],[-113.377825,53.558819],[-113.378042,53.559282],[-113.377925,53.560126],[-113.377881,53.560875],[-113.377495,53.561789],[-113.377414,53.56224],[-113.37743,53.562916],[-113.377246,53.56328],[-113.376965,53.564672],[-113.376805,53.565116],[-113.375999,53.565906],[-113.375723,53.566404],[-113.375034,53.567154],[-113.374732,53.567375],[-113.374004,53.568329],[-113.37369,53.568528],[-113.373614,53.568745],[-113.372896,53.569397],[-113.372405,53.569908],[-113.370279,53.569172],[-113.369317,53.56891],[-113.367697,53.568601],[-113.366551,53.568472],[-113.363467,53.56841],[-113.356974,53.568426],[-113.356967,53.570637],[-113.356891,53.570754],[-113.356234,53.570636],[-113.351495,53.570633],[-113.34791,53.571043],[-113.347525,53.571042],[-113.344173,53.571422],[-113.344172,53.571066],[-113.343923,53.570809],[-113.340171,53.570807],[-113.340171,53.570719],[-113.332456,53.570715],[-113.333046,53.57044],[-113.332302,53.57044],[-113.329779,53.571613],[-113.324723,53.571589],[-113.323345,53.571718],[-113.320562,53.572275],[-113.3204,53.572397],[-113.319274,53.572461],[-113.319276,53.571849],[-113.319139,53.571678],[-113.319081,53.571103],[-113.318715,53.570786],[-113.317922,53.570616],[-113.316768,53.570585],[-113.310251,53.570568],[-113.297039,53.570543],[-113.295592,53.570478],[-113.295588,53.571927],[-113.296452,53.571928],[-113.296164,53.572661],[-113.295884,53.575062],[-113.295733,53.575062],[-113.295731,53.57764],[-113.29558,53.57764],[-113.295536,53.592738],[-113.295508,53.599369],[-113.295585,53.59955],[-113.295571,53.602907],[-113.295713,53.604183],[-113.297176,53.605302],[-113.295806,53.605936],[-113.295558,53.606769],[-113.295568,53.611262],[-113.295493,53.61156],[-113.295498,53.613173],[-113.295424,53.613918],[-113.295418,53.614536],[-113.295404,53.615745],[-113.295456,53.616614],[-113.295915,53.618017],[-113.296494,53.619093],[-113.296957,53.619617],[-113.297522,53.620018],[-113.298417,53.620559],[-113.299248,53.621239],[-113.299789,53.621451],[-113.30045,53.621803],[-113.302733,53.622662],[-113.303641,53.623059],[-113.305494,53.623556],[-113.306715,53.623765],[-113.307389,53.623976],[-113.308299,53.624169],[-113.30935,53.624337],[-113.309604,53.62442],[-113.311207,53.624705],[-113.314139,53.625332],[-113.315591,53.62561],[-113.317127,53.62604],[-113.318537,53.626738],[-113.319085,53.627091],[-113.319926,53.627726],[-113.3208,53.628246],[-113.322103,53.62989],[-113.322305,53.630206],[-113.322482,53.630844],[-113.322392,53.63176],[-113.322477,53.632441],[-113.322401,53.633505],[-113.322163,53.634003],[-113.321726,53.634593],[-113.3211,53.635091],[-113.320212,53.635663],[-113.319657,53.635945],[-113.319385,53.636159],[-113.317894,53.636854],[-113.31739,53.637019],[-113.315932,53.637393],[-113.314862,53.637627],[-113.313498,53.637826],[-113.311904,53.637942],[-113.310882,53.638079],[-113.309813,53.638143],[-113.307905,53.638312],[-113.306569,53.638537],[-113.305093,53.638739],[-113.304304,53.63891],[-113.301501,53.638999],[-113.300478,53.63905],[-113.298998,53.63917],[-113.297886,53.639194],[-113.295665,53.63952],[-113.295333,53.63962],[-113.294458,53.63975],[-113.293223,53.640012],[-113.292365,53.640274],[-113.291066,53.640749],[-113.289866,53.641281],[-113.288617,53.642079],[-113.287658,53.642817],[-113.286656,53.643906],[-113.286182,53.644689],[-113.286147,53.645004],[-113.285821,53.645261],[-113.285424,53.645828],[-113.285291,53.646308],[-113.284959,53.647062],[-113.285135,53.647568],[-113.285232,53.648391],[-113.285212,53.648964],[-113.285024,53.649699],[-113.284781,53.650395],[-113.284473,53.651821],[-113.284399,53.652817],[-113.284157,53.653366],[-113.284141,53.653787],[-113.284619,53.654687],[-113.284822,53.654831],[-113.284967,53.655232],[-113.284804,53.655434],[-113.284755,53.655783],[-113.284479,53.656189],[-113.284163,53.656361],[-113.283868,53.656351],[-113.28396,53.655835],[-113.283917,53.655497],[-113.28372,53.655434],[-113.283411,53.656802],[-113.283126,53.65779],[-113.28249,53.658977],[-113.281786,53.660044],[-113.281475,53.660352],[-113.280772,53.66121],[-113.280307,53.661655],[-113.279775,53.662266],[-113.278867,53.663033],[-113.277974,53.663604],[-113.276861,53.664384],[-113.276246,53.664895],[-113.275588,53.665214],[-113.274725,53.665748],[-113.27392,53.666029],[-113.273135,53.666167],[-113.272818,53.666282],[-113.272154,53.666782],[-113.271671,53.66752],[-113.271595,53.667838],[-113.271525,53.668907],[-113.272105,53.669732],[-113.27216,53.670131],[-113.272388,53.670575],[-113.272674,53.670875],[-113.273042,53.671404],[-113.274221,53.672332],[-113.275696,53.672913],[-113.276954,53.673153],[-113.277989,53.67323],[-113.279282,53.673538],[-113.280334,53.673653],[-113.281641,53.673638],[-113.282404,53.673587],[-113.28307,53.673458],[-113.284112,53.673408],[-113.285953,53.673044],[-113.2875,53.672782],[-113.288541,53.672508],[-113.290472,53.672184],[-113.291217,53.672122],[-113.292013,53.672135],[-113.292672,53.672206],[-113.295496,53.672192],[-113.2955,53.674548],[-113.295513,53.679425],[-113.295417,53.686714],[-113.295316,53.699082],[-113.295298,53.70132],[-113.295234,53.715641],[-113.319531,53.715685],[-113.321355,53.715777],[-113.331984,53.715795],[-113.331984,53.715729],[-113.341617,53.715745],[-113.342078,53.715811],[-113.357717,53.715835],[-113.381213,53.715865],[-113.397635,53.715886],[-113.417761,53.715904],[-113.430288,53.715917],[-113.430335,53.702014],[-113.430368,53.688491],[-113.430421,53.672317],[-113.43049,53.657721],[-113.431609,53.657723],[-113.431154,53.657545],[-113.431182,53.656745],[-113.431255,53.656453],[-113.435145,53.652226],[-113.435772,53.651612],[-113.437123,53.650506],[-113.442818,53.65051],[-113.465068,53.650527],[-113.491893,53.650546],[-113.517034,53.650547],[-113.524555,53.650548],[-113.541337,53.650546],[-113.565621,53.650562],[-113.565647,53.642895],[-113.565665,53.634227],[-113.565666,53.633811],[-113.567954,53.632976],[-113.571661,53.631805],[-113.572114,53.63168],[-113.573316,53.631486],[-113.574311,53.631458],[-113.576076,53.631636],[-113.576656,53.631897],[-113.576813,53.632159],[-113.579012,53.632155],[-113.579188,53.631345],[-113.57942,53.63091],[-113.579747,53.630497],[-113.580321,53.629994],[-113.581036,53.629559],[-113.581651,53.629286],[-113.582819,53.628837],[-113.583495,53.628837],[-113.586476,53.627678],[-113.588048,53.627018],[-113.589394,53.626414],[-113.591611,53.625336],[-113.593265,53.624457],[-113.59435,53.623842],[-113.596147,53.622749],[-113.598183,53.621395],[-113.601978,53.620519],[-113.602831,53.619106],[-113.602828,53.618439],[-113.60429,53.619205],[-113.604546,53.61903],[-113.605384,53.618459],[-113.605119,53.617709],[-113.605146,53.6172],[-113.605421,53.616568],[-113.605796,53.616128],[-113.606775,53.615393],[-113.608771,53.614061],[-113.614889,53.614027],[-113.615552,53.61403],[-113.615543,53.612806],[-113.618739,53.609994],[-113.623352,53.607089],[-113.627698,53.605227],[-113.628332,53.605015],[-113.629029,53.604892],[-113.629936,53.604873],[-113.630812,53.605003],[-113.631458,53.605212],[-113.635614,53.606942],[-113.638744,53.606963],[-113.63885,53.603132],[-113.638912,53.602302],[-113.638888,53.601767],[-113.638944,53.599706],[-113.651529,53.599665],[-113.664001,53.599623],[-113.671664,53.599596],[-113.671666,53.599416],[-113.672541,53.598798],[-113.673502,53.598263],[-113.674021,53.597853],[-113.674737,53.597564],[-113.675769,53.597238],[-113.6775,53.596941],[-113.677983,53.597002],[-113.678739,53.596677],[-113.678782,53.596544],[-113.679536,53.596367],[-113.67967,53.596626],[-113.679392,53.596744],[-113.680027,53.597007],[-113.680249,53.596941],[-113.680266,53.596546],[-113.680602,53.596427],[-113.681167,53.596707],[-113.681662,53.596429],[-113.681941,53.596425],[-113.682289,53.596207],[-113.682112,53.595938],[-113.682335,53.595868],[-113.682738,53.595977],[-113.683214,53.595726],[-113.683476,53.595435],[-113.683816,53.595462],[-113.684316,53.595341],[-113.684825,53.595014],[-113.685339,53.594922],[-113.686065,53.594585],[-113.687119,53.594304],[-113.689163,53.593522],[-113.690776,53.592938],[-113.691028,53.592806],[-113.692113,53.592468],[-113.692666,53.592352],[-113.694316,53.592176],[-113.696103,53.592289],[-113.696921,53.592464],[-113.697819,53.592561],[-113.6985,53.592547],[-113.699796,53.592346],[-113.70099,53.592378],[-113.702425,53.592554],[-113.703019,53.59259],[-113.704297,53.592796],[-113.705131,53.59285],[-113.705849,53.592779],[-113.707554,53.592842],[-113.710081,53.592856],[-113.710818,53.592804],[-113.712701,53.5926],[-113.713802,53.592553],[-113.713784,53.584106],[-113.713765,53.569906],[-113.713736,53.555569],[-113.713734,53.554408],[-113.713708,53.541197],[-113.713672,53.533916],[-113.713644,53.526527],[-113.713581,53.512101],[-113.701161,53.512122],[-113.689132,53.512131],[-113.689115,53.497676],[-113.688945,53.497596],[-113.689115,53.497599],[-113.689103,53.483128],[-113.689093,53.475827],[-113.689089,53.468593],[-113.689078,53.456902],[-113.689076,53.45401],[-113.689214,53.432242],[-113.689254,53.424844],[-113.689343,53.410392],[-113.689352,53.403257],[-113.664069,53.403405],[-113.650917,53.403256],[-113.65097,53.403162],[-113.649061,53.40314],[-113.648459,53.402161],[-113.648183,53.40142],[-113.647827,53.40072],[-113.647582,53.399983],[-113.64696,53.398785],[-113.646904,53.398474],[-113.646692,53.398141],[-113.646293,53.397211],[-113.646185,53.396649],[-113.646242,53.396191],[-113.646505,53.395688],[-113.643994,53.395658],[-113.643903,53.394746],[-113.643926,53.393902],[-113.643826,53.393742],[-113.643797,53.393267],[-113.643555,53.393012],[-113.64355,53.392688],[-113.64373,53.392199],[-113.643909,53.391198],[-113.644241,53.390499],[-113.644497,53.39026],[-113.644824,53.389714],[-113.645089,53.389085],[-113.646029,53.387656],[-113.646285,53.38739],[-113.647185,53.386679],[-113.64804,53.385742],[-113.648338,53.385358],[-113.648815,53.384937],[-113.649464,53.384269],[-113.649977,53.383815],[-113.651687,53.382752],[-113.653132,53.382257],[-113.655416,53.381387],[-113.656891,53.381047],[-113.657612,53.380921],[-113.658367,53.380669],[-113.659593,53.380556],[-113.660653,53.380366],[-113.662824,53.380112],[-113.663993,53.380035],[-113.664589,53.380104],[-113.666009,53.380099],[-113.666842,53.380197],[-113.667913,53.38047],[-113.669178,53.381009],[-113.670031,53.381242],[-113.671457,53.381695],[-113.673267,53.382093],[-113.674583,53.382432],[-113.675039,53.382512],[-113.675866,53.382772],[-113.677506,53.383104],[-113.677965,53.383237],[-113.678921,53.383406],[-113.679754,53.383504],[-113.681861,53.383537],[-113.683667,53.383352],[-113.684826,53.383128],[-113.685858,53.382809],[-113.686605,53.382504],[-113.687955,53.381261],[-113.688425,53.380603],[-113.689239,53.379668],[-113.690071,53.379048],[-113.690523,53.37857],[-113.690698,53.378297],[-113.691054,53.377516],[-113.691069,53.376797],[-113.691017,53.376448],[-113.691146,53.375627],[-113.691117,53.375067],[-113.69092,53.374486],[-113.69027,53.373943],[-113.68973,53.373713],[-113.689193,53.373294],[-113.688606,53.372543],[-113.688097,53.372105],[-113.688057,53.371935],[-113.687577,53.371479],[-113.685821,53.370297],[-113.685512,53.369926],[-113.684649,53.369344],[-113.684312,53.368992],[-113.684077,53.368602],[-113.683997,53.36829],[-113.684103,53.36782],[-113.684261,53.366747],[-113.68444,53.366258],[-113.684766,53.364993],[-113.684611,53.364197],[-113.68416,53.363479],[-113.684168,53.362662],[-113.684435,53.361892],[-113.684634,53.361465],[-113.684659,53.360908],[-113.684808,53.360662],[-113.685366,53.360218],[-113.685574,53.359468],[-113.685782,53.359193],[-113.68603,53.358613],[-113.686609,53.358034],[-113.686999,53.35755],[-113.687132,53.357277],[-113.687485,53.356928],[-113.688349,53.356315],[-113.689737,53.355476],[-113.690817,53.354994],[-113.691612,53.354733],[-113.693736,53.35413],[-113.694161,53.354201],[-113.694589,53.354074],[-113.695415,53.354075],[-113.695929,53.354142],[-113.695863,53.3523],[-113.693317,53.352292],[-113.693232,53.352075],[-113.693562,53.350648],[-113.693483,53.350344],[-113.693778,53.34979],[-113.692923,53.349338],[-113.692934,53.349042],[-113.692533,53.348371],[-113.692083,53.34793],[-113.691804,53.347541],[-113.691309,53.347064],[-113.690787,53.346873],[-113.690315,53.346793],[-113.688781,53.346237],[-113.688541,53.346013],[-113.688298,53.345973],[-113.687835,53.345533],[-113.687338,53.345256],[-113.686696,53.34504],[-113.683788,53.345029],[-113.683785,53.337393],[-113.680241,53.337394],[-113.680241,53.337709],[-113.675307,53.337711],[-113.671494,53.337444],[-113.671494,53.3375],[-113.669848,53.337454],[-113.668582,53.337443],[-113.663886,53.337442],[-113.663886,53.337478],[-113.65958,53.337477],[-113.659445,53.337362],[-113.659008,53.337443],[-113.647058,53.337513],[-113.642861,53.337622],[-113.642861,53.337676],[-113.641015,53.337702],[-113.641015,53.337648],[-113.638623,53.33762],[-113.635113,53.337528],[-113.632598,53.337529],[-113.624073,53.337745],[-113.621235,53.337848],[-113.620536,53.337712],[-113.619183,53.337746],[-113.615,53.337636],[-113.615,53.337689],[-113.613629,53.337642],[-113.613629,53.33757],[-113.610429,53.337567],[-113.606265,53.337563],[-113.60387,53.337524],[-113.600563,53.337521],[-113.59907,53.337555],[-113.586111,53.337546],[-113.586111,53.337591],[-113.583517,53.337593],[-113.583517,53.337548],[-113.573428,53.337556],[-113.568746,53.337545],[-113.561866,53.337421],[-113.561564,53.337422],[-113.560476,53.337665],[-113.553566,53.337666],[-113.553522,53.338837],[-113.551125,53.340963],[-113.550059,53.342373],[-113.547427,53.34556],[-113.537426,53.359334],[-113.531971,53.366866],[-113.5237,53.378225],[-113.523159,53.37909],[-113.522448,53.380511],[-113.521914,53.381318],[-113.517818,53.386945],[-113.517361,53.387511],[-113.516168,53.388693],[-113.515518,53.389464],[-113.510933,53.395768],[-113.508931,53.395763],[-113.491975,53.395721],[-113.473635,53.395757],[-113.467431,53.395768],[-113.467393,53.381483],[-113.467693,53.381481],[-113.467713,53.374534],[-113.467413,53.37448],[-113.467435,53.366697],[-113.464321,53.366652],[-113.464321,53.366802],[-113.455069,53.366802],[-113.455041,53.374113],[-113.443004,53.374023],[-113.442702,53.374024],[-113.442633,53.381337],[-113.430405,53.381332],[-113.418094,53.381322],[-113.39363,53.381267],[-113.393597,53.366911],[-113.39097,53.366915],[-113.390965,53.366735],[-113.378899,53.366742],[-113.37304,53.36675],[-113.367042,53.366748],[-113.34442,53.366727],[-113.344597,53.381254],[-113.344644,53.395777],[-113.34464,53.404721],[-113.344634,53.424891],[-113.344604,53.441574]]]},"properties":{"city":"Edmonton"}}
]}