{
"type": "FeatureCollection",
"name": "ev_charging",
"crs": { "type": "name", "properties": { "name": "urn:ogc:def:crs:OGC:1.3:CRS84" } },
"features": [
{ "type": "Feature", "properties": { "station_name": "SWTCH Energy Inc.", "street_address": "9499 137 Ave NW", "charging_level": "Level 2", "ev_network": "SWTCH", "ev_connector_types": "J1772", "total_number_of_ports": 5.0, "status": "Available", "ev_pricing": "Free" }, "geometry": { "type": "Point", "coordinates": [ -113.486999, 53.598301 ] } },
{ "type": "Feature", "properties": { "station_name": "IKEA", "street_address": "1311 102nd St NW", "charging_level": "Level 2", "ev_network": "Non-Networked", "ev_connector_types": "J1772", "total_number_of_ports": 4.0, "status": "Available", "ev_pricing": "Free" }, "geometry": { "type": "Point", "coordinates": [ -113.489439, 53.443099 ] } },
{ "type": "Feature", "properties": { "station_name": "LOE MAIN CPF50 2", "street_address": "11204 170 Street Northwest", "charging_level": "Level 2", "ev_network": "ChargePoint Network", "ev_connector_types": "J1772", "total_number_of_ports": 1.0, "status": "Available", "ev_pricing": null }, "geometry": { "type": "Point", "coordinates": [ -113.61675, 53.560651 ] } },
{ "type": "Feature", "properties": { "station_name": "EPCOR TOWER STATION 1", "street_address": "10423 101 St NW", "charging_level": "Level 2", "ev_network": "ChargePoint Network", "ev_connector_types": "J1772", "total_number_of_ports": 2.0, "status": "Available", "ev_pricing": null }, "geometry": { "type": "Point", "coordinates": [ -113.493126, 53.547737 ] } },
{ "type": "Feature", "properties": { "station_name": "Southgrow Regional Initiative", "street_address": "9520 42 Ave NW", "charging_level": "Level 2", "ev_network": "Non-Networked", "ev_connector_types": "J1772", "total_number_of_ports": 3.0, "status": "Available", "ev_pricing": null }, "geometry": { "type": "Point", "coordinates": [ -113.476741, 53.48049 ] } },
{ "type": "Feature", "properties": { "station_name": "BROADSTREET KESWICK 2", "street_address": "1820 Keene Crescent Southwest", "charging_level": "Level 2", "ev_network": "ChargePoint Network", "ev_connector_types": "J1772", "total_number_of_ports": 2.0, "status": "Available", "ev_pricing": null }, "geometry": { "type": "Point", "coordinates": [ -113.61729, 53.418013 ] } },
{ "type": "Feature", "properties": { "station_name": "Le Louvre", "street_address": "11025 26 Ave NW", "charging_level": "Level 2", "ev_network": "Non-Networked", "ev_connector_types": "J1772", "total_number_of_ports": 3.0, "status": "Available", "ev_pricing": null }, "geometry": { "type": "Point", "coordinates": [ -113.51408, 53.45653 ] } },
{ "type": "Feature", "properties": { "station_name": "Swtch Energy", "street_address": "10250 101 St NW", "charging_level": "Level 2", "ev_network": "SWTCH", "ev_connector_types": "J1772", "total_number_of_ports": 1.0, "status": "Available", "ev_pricing": "$1 per hour" }, "geometry": { "type": "Point", "coordinates": [ -113.494202, 53.544078 ] } },
{ "type": "Feature", "properties": { "station_name": "BROADSTREET CASTLEBROOK #3", "street_address": "17440 110 St NW", "charging_level": "Level 2", "ev_network": "ChargePoint Network", "ev_connector_types": "J1772", "total_number_of_ports": 2.0, "status": "Available", "ev_pricing": null }, "geometry": { "type": "Point", "coordinates": [ -113.5157, 53.637177 ] } },
{ "type": "Feature", "properties": { "station_name": "SWTCH Energy", "street_address": "10245 102 St NW", "charging_level": "Level 2", "ev_network": "SWTCH", "ev_connector_types": "J1772", "total_number_of_ports": 8.0, "status": "Available", "ev_pricing": "$6.50 per hour" }, "geometry": { "type": "Point", "coordinates": [ -113.496002, 53.544102 ] } },
{ "type": "Feature", "properties": { "station_name": "Encor by EPCOR", "street_address": "7515 118 Avenue North West", "charging_level": "Level 2", "ev_network": "Non-Networked", "ev_connector_types": "J1772", "total_number_of_ports": 2.0, "status": "Planned", "ev_pricing": null }, "geometry": { "type": "Point", "coordinates": [ -113.456683, 53.57027 ] } },
{ "type": "Feature", "properties": { "station_name": "EPCOR - Meadows Rec Center", "street_address": "2704 17 St NW", "charging_level": "Level 2", "ev_network": "FLO", "ev_connector_types": "J1772", "total_number_of_ports": 4.0, "status": "Available", "ev_pricing": null }, "geometry": { "type": "Point", "coordinates": [ -113.37165, 53.459243 ] } },
{ "type": "Feature", "properties": { "station_name": "BROADSTREET SIERRA #3", "street_address": "21809 91a ave NW", "charging_level": "Level 2", "ev_network": "ChargePoint Network", "ev_connector_types": "J1772", "total_number_of_ports": 2.0, "status": "Available", "ev_pricing": null }, "geometry": { "type": "Point", "coordinates": [ -113.693924, 53.525764 ] } },
{ "type": "Feature", "properties": { "station_name": "CoE - 8322-105th Street (Strathcona)", "street_address": "8322 105th Street", "charging_level": "Level 2", "ev_network": "FLO", "ev_connector_types": "J1772", "total_number_of_ports": 2.0, "status": "Available", "ev_pricing": null }, "geometry": { "type": "Point", "coordinates": [ -113.5005, 53.519364 ] } },
{ "type": "Feature", "properties": { "station_name": "Indigo Park Canada Inc", "street_address": "10305 – 106th St NW", "charging_level": "Level 2", "ev_network": "Non-Networked", "ev_connector_types": "J1772", "total_number_of_ports": 4.0, "status": "Available", "ev_pricing": null }, "geometry": { "type": "Point", "coordinates": [ -113.502576, 53.544922 ] } },
{ "type": "Feature", "properties": { "station_name": "Encor by EPCOR - City of Edmonton - Kinsmen Sports Centre", "street_address": "9100 Walterdale Hill NW", "charging_level": "Level 2", "ev_network": "FLO", "ev_connector_types": "J1772", "total_number_of_ports": 2.0, "status": "Available", "ev_pricing": null }, "geometry": { "type": "Point", "coordinates": [ -113.504194, 53.526111 ] } },
{ "type": "Feature", "properties": { "station_name": "Coast Edmonton Plaza Hotel - Tesla Destination", "street_address": "10155 105 St NW", "charging_level": "Level 2", "ev_network": "Tesla Destination", "ev_connector_types": "J1772,TESLA", "total_number_of_ports": 2.0, "status": "Available", "ev_pricing": null }, "geometry": { "type": "Point", "coordinates": [ -113.500861, 53.542152 ] } },
{ "type": "Feature", "properties": { "station_name": "First Capital Asset Management LP", "street_address": "10469 80 Ave NW", "charging_level": "Level 2", "ev_network": "Non-Networked", "ev_connector_types": "J1772", "total_number_of_ports": 2.0, "status": "Available", "ev_pricing": null }, "geometry": { "type": "Point", "coordinates": [ -113.498427, 53.515714 ] } },
{ "type": "Feature", "properties": { "station_name": "Swtch Energy", "street_address": "10060 Jasper Ave", "charging_level": "Level 2", "ev_network": "SWTCH", "ev_connector_types": "J1772", "total_number_of_ports": 1.0, "status": "Available", "ev_pricing": "$2 per hr" }, "geometry": { "type": "Point", "coordinates": [ -113.49254, 53.541398 ] } },
{ "type": "Feature", "properties": { "station_name": "DERRICK STATION 2", "street_address": "1300 119th St NW", "charging_level": "Level 2", "ev_network": "ChargePoint Network", "ev_connector_types": "J1772", "total_number_of_ports": 2.0, "status": "Available", "ev_pricing": null }, "geometry": { "type": "Point", "coordinates": [ -113.53982, 53.468758 ] } },
{ "type": "Feature", "properties": { "station_name": "BROADSTREET CASTLEBROOK #2", "street_address": "17430 110 St NW", "charging_level": "Level 2", "ev_network": "ChargePoint Network", "ev_connector_types": "J1772", "total_number_of_ports": 2.0, "status": "Available", "ev_pricing": null }, "geometry": { "type": "Point", "coordinates": [ -113.51481, 53.63778 ] } },
{ "type": "Feature", "properties": { "station_name": "Home2 Suites by Hilton Edmonton South", "street_address": "1140 103A Street Southwest", "charging_level": "Level 2", "ev_network": "FLO", "ev_connector_types": "J1772", "total_number_of_ports": 4.0, "status": "Available", "ev_pricing": null }, "geometry": { "type": "Point", "coordinates": [ -113.496474, 53.422212 ] } },
{ "type": "Feature", "properties": { "station_name": "GWLRA FIRST & JASPER", "street_address": "10065 Jasper Ave", "charging_level": "Level 2", "ev_network": "ChargePoint Network", "ev_connector_types": "J1772", "total_number_of_ports": 2.0, "status": "Available", "ev_pricing": null }, "geometry": { "type": "Point", "coordinates": [ -113.49311, 53.54074 ] } },
{ "type": "Feature", "properties": { "station_name": "ChargeStop Edmonton", "street_address": "8106 99 St NW", "charging_level": "DC Fast", "ev_network": "Non-Networked", "ev_connector_types": "J1772COMBO", "total_number_of_ports": 5.0, "status": "Available", "ev_pricing": "$0.65 per kWh" }, "geometry": { "type": "Point", "coordinates": [ -113.486541, 53.517285 ] } },
{ "type": "Feature", "properties": { "station_name": "NORDENVW STATION1", "street_address": "14703 137 Ave NW", "charging_level": "Level 2", "ev_network": "ChargePoint Network", "ev_connector_types": "J1772", "total_number_of_ports": 1.0, "status": "Available", "ev_pricing": null }, "geometry": { "type": "Point", "coordinates": [ -113.575466, 53.598776 ] } },
{ "type": "Feature", "properties": { "station_name": "Jim Pattison Developments Ltd", "street_address": "936 91 St SW", "charging_level": "Level 2", "ev_network": "Non-Networked", "ev_connector_types": "J1772", "total_number_of_ports": 6.0, "status": "Available", "ev_pricing": null }, "geometry": { "type": "Point", "coordinates": [ -113.476155, 53.424483 ] } },
{ "type": "Feature", "properties": { "station_name": "SWTCH Energy", "street_address": "11129 83 Ave NW", "charging_level": "Level 2", "ev_network": "SWTCH", "ev_connector_types": "J1772", "total_number_of_ports": 5.0, "status": "Available", "ev_pricing": "Free" }, "geometry": { "type": "Point", "coordinates": [ -113.51917, 53.51845 ] } },
{ "type": "Feature", "properties": { "station_name": "Sprucewoods Business Park", "street_address": "8905 51 Ave", "charging_level": "Level 2", "ev_network": "FLO", "ev_connector_types": "J1772", "total_number_of_ports": 2.0, "status": "Available", "ev_pricing": null }, "geometry": { "type": "Point", "coordinates": [ -113.46541, 53.487684 ] } },
{ "type": "Feature", "properties": { "station_name": "110 Street Parkade", "street_address": "10930 104 Ave NW", "charging_level": "Level 2", "ev_network": "FLO", "ev_connector_types": "J1772", "total_number_of_ports": 2.0, "status": "Available", "ev_pricing": null }, "geometry": { "type": "Point", "coordinates": [ -113.509866, 53.547375 ] } },
{ "type": "Feature", "properties": { "station_name": "BROADSTREET WESTPOINTE #5", "street_address": "1159 Rosenthal Blvd", "charging_level": "Level 2", "ev_network": "ChargePoint Network", "ev_connector_types": "J1772", "total_number_of_ports": 2.0, "status": "Available", "ev_pricing": null }, "geometry": { "type": "Point", "coordinates": [ -113.707466, 53.516705 ] } },
{ "type": "Feature", "properties": { "station_name": "Southgrow Regional Initiative", "street_address": "17631 103 Ave NW", "charging_level": "Level 2", "ev_network": "Non-Networked", "ev_connector_types": "J1772", "total_number_of_ports": 4.0, "status": "Available", "ev_pricing": null }, "geometry": { "type": "Point", "coordinates": [ -113.62529, 53.54509 ] } },
{ "type": "Feature", "properties": { "station_name": "BROADSTREET CASTLEBROOK #7", "street_address": "17410 110 St NW", "charging_level": "Level 2", "ev_network": "ChargePoint Network", "ev_connector_types": "J1772", "total_number_of_ports": 2.0, "status": "Available", "ev_pricing": null }, "geometry": { "type": "Point", "coordinates": [ -113.51446, 53.637325 ] } },
{ "type": "Feature", "properties": { "station_name": "SOUTHGATE1 SOUTHGATE", "street_address": "4813-4835 111 St NW", "charging_level": "Level 2", "ev_network": "ChargePoint Network", "ev_connector_types": "J1772", "total_number_of_ports": 2.0, "status": "Available", "ev_pricing": null }, "geometry": { "type": "Point", "coordinates": [ -113.514992, 53.485106 ] } },
{ "type": "Feature", "properties": { "station_name": "Shell Canada", "street_address": "9805 Winterburn RD NW", "charging_level": "DC Fast", "ev_network": "Non-Networked", "ev_connector_types": "J1772COMBO", "total_number_of_ports": 3.0, "status": "Planned", "ev_pricing": null }, "geometry": { "type": "Point", "coordinates": [ -113.68835, 53.536338 ] } },
{ "type": "Feature", "properties": { "station_name": "Tellus World of Science", "street_address": "11211 142 St NW", "charging_level": "DC Fast", "ev_network": "Non-Networked", "ev_connector_types": "CHADEMO,J1772COMBO", "total_number_of_ports": 2.0, "status": "Planned", "ev_pricing": null }, "geometry": { "type": "Point", "coordinates": [ -113.563625, 53.561002 ] } },
{ "type": "Feature", "properties": { "station_name": "SWTCH Energy Inc.", "street_address": "500 Riverbend Sq NW", "charging_level": "Level 2", "ev_network": "SWTCH", "ev_connector_types": "J1772", "total_number_of_ports": 4.0, "status": "Available", "ev_pricing": null }, "geometry": { "type": "Point", "coordinates": [ -113.588, 53.4685 ] } },
{ "type": "Feature", "properties": { "station_name": "Saroukian Holdings Ltd", "street_address": "4210 Gateway Blvd", "charging_level": "Level 2", "ev_network": "Non-Networked", "ev_connector_types": "J1772", "total_number_of_ports": 4.0, "status": "Planned", "ev_pricing": null }, "geometry": { "type": "Point", "coordinates": [ -113.493077, 53.477997 ] } },
{ "type": "Feature", "properties": { "station_name": "SWTCH Energy", "street_address": "1969 98 St NW", "charging_level": "Level 2", "ev_network": "SWTCH", "ev_connector_types": "J1772", "total_number_of_ports": 8.0, "status": "Available", "ev_pricing": "Free" }, "geometry": { "type": "Point", "coordinates": [ -113.483863, 53.449128 ] } },
{ "type": "Feature", "properties": { "station_name": "EPCOR - Callingwood", "street_address": "17740 69 Avenue NW", "charging_level": "Level 2", "ev_network": "FLO", "ev_connector_types": "J1772", "total_number_of_ports": 4.0, "status": "Available", "ev_pricing": null }, "geometry": { "type": "Point", "coordinates": [ -113.627834, 53.505875 ] } },
{ "type": "Feature", "properties": { "station_name": "Swtch Energy", "street_address": "10235 101 St NW", "charging_level": "Level 2", "ev_network": "SWTCH", "ev_connector_types": "J1772", "total_number_of_ports": 1.0, "status": "Available", "ev_pricing": "$1.50 per hour" }, "geometry": { "type": "Point", "coordinates": [ -113.493176, 53.544552 ] } },
{ "type": "Feature", "properties": { "station_name": "TOYOTA ON TRAIL SHOP", "street_address": "5210 Calgary Trail Northwest", "charging_level": "Level 2", "ev_network": "ChargePoint Network", "ev_connector_types": "J1772", "total_number_of_ports": 1.0, "status": "Available", "ev_pricing": null }, "geometry": { "type": "Point", "coordinates": [ -113.49665, 53.489563 ] } },
{ "type": "Feature", "properties": { "station_name": "EPL STATION 1", "street_address": "7 Sir Winston Churchill Square", "charging_level": "Level 2", "ev_network": "ChargePoint Network", "ev_connector_types": "J1772", "total_number_of_ports": 2.0, "status": "Available", "ev_pricing": null }, "geometry": { "type": "Point", "coordinates": [ -113.489759, 53.542897 ] } },
{ "type": "Feature", "properties": { "station_name": "HD OF EDMONTON DCFAST HOG", "street_address": "7420 Yellowhead Trail NW", "charging_level": "DC Fast", "ev_network": "ChargePoint Network", "ev_connector_types": "J1772COMBO", "total_number_of_ports": 1.0, "status": "Available", "ev_pricing": null }, "geometry": { "type": "Point", "coordinates": [ -113.456024, 53.583008 ] } },
{ "type": "Feature", "properties": { "station_name": "BROADSTREET CASTLEBROOK #5", "street_address": "17420 110 St NW", "charging_level": "Level 2", "ev_network": "ChargePoint Network", "ev_connector_types": "J1772", "total_number_of_ports": 2.0, "status": "Available", "ev_pricing": null }, "geometry": { "type": "Point", "coordinates": [ -113.51498, 53.63704 ] } },
{ "type": "Feature", "properties": { "station_name": "Vaticano Cucina - Tesla Destination", "street_address": "10310 45th Ave NW", "charging_level": "Level 2", "ev_network": "Tesla Destination", "ev_connector_types": "TESLA", "total_number_of_ports": 3.0, "status": "Available", "ev_pricing": null }, "geometry": { "type": "Point", "coordinates": [ -113.49272, 53.483286 ] } },
{ "type": "Feature", "properties": { "station_name": "LOE MAIN CPF50 1", "street_address": "11204 170 Street Northwest", "charging_level": "Level 2", "ev_network": "ChargePoint Network", "ev_connector_types": "J1772", "total_number_of_ports": 1.0, "status": "Available", "ev_pricing": null }, "geometry": { "type": "Point", "coordinates": [ -113.616754, 53.560798 ] } },
{ "type": "Feature", "properties": { "station_name": "Southgrow Regional Initiative", "street_address": "9231 100 Ave NW", "charging_level": "Level 2", "ev_network": "Non-Networked", "ev_connector_types": "J1772", "total_number_of_ports": 2.0, "status": "Available", "ev_pricing": null }, "geometry": { "type": "Point", "coordinates": [ -113.47273, 53.54178 ] } },
{ "type": "Feature", "properties": { "station_name": "First Capital Asset Management LP", "street_address": "10405 20th St NW", "charging_level": "Level 2", "ev_network": "Non-Networked", "ev_connector_types": "J1772", "total_number_of_ports": 2.0, "status": "Available", "ev_pricing": null }, "geometry": { "type": "Point", "coordinates": [ -113.52739, 53.54744 ] } },
{ "type": "Feature", "properties": { "station_name": "Canadian Tire 676 (Edmonton AB)", "street_address": "6014 Current Dr NW", "charging_level": "DC Fast", "ev_network": "Electrify Canada", "ev_connector_types": "J1772COMBO", "total_number_of_ports": 6.0, "status": "Available", "ev_pricing": null }, "geometry": { "type": "Point", "coordinates": [ -113.59868, 53.43561 ] } },
{ "type": "Feature", "properties": { "station_name": "Edmonton Public Library - Calder", "street_address": "12710 131 Ave NW", "charging_level": "Level 2", "ev_network": "Non-Networked", "ev_connector_types": "J1772", "total_number_of_ports": 1.0, "status": "Available", "ev_pricing": "Free" }, "geometry": { "type": "Point", "coordinates": [ -113.541692, 53.590348 ] } },
{ "type": "Feature", "properties": { "station_name": "Fairmont Hotel Macdonald - Tesla Destination", "street_address": "10065 100th St", "charging_level": "Level 2", "ev_network": "Tesla Destination", "ev_connector_types": "TESLA", "total_number_of_ports": 1.0, "status": "Available", "ev_pricing": null }, "geometry": { "type": "Point", "coordinates": [ -113.489949, 53.540495 ] } },
{ "type": "Feature", "properties": { "station_name": "IKEA 349 EDMONTON CX1", "street_address": "1307 102 St NW", "charging_level": "Level 2", "ev_network": "ChargePoint Network", "ev_connector_types": "J1772", "total_number_of_ports": 2.0, "status": "Available", "ev_pricing": null }, "geometry": { "type": "Point", "coordinates": [ -113.490325, 53.44327 ] } },
{ "type": "Feature", "properties": { "station_name": "BROADSTREET WESTPOINTE #3", "street_address": "1159 Rosenthal Blvd", "charging_level": "Level 2", "ev_network": "ChargePoint Network", "ev_connector_types": "J1772", "total_number_of_ports": 2.0, "status": "Available", "ev_pricing": null }, "geometry": { "type": "Point", "coordinates": [ -113.707726, 53.517117 ] } },
{ "type": "Feature", "properties": { "station_name": "Swtch Energy", "street_address": "11525 104 Ave NW", "charging_level": "Level 2", "ev_network": "SWTCH", "ev_connector_types": "J1772", "total_number_of_ports": 2.0, "status": "Available", "ev_pricing": "$1.50 per hour" }, "geometry": { "type": "Point", "coordinates": [ -113.520629, 53.545919 ] } },
{ "type": "Feature", "properties": { "station_name": "TNWESPT CHARGE CT4K STATION 1", "street_address": "14240 137 Ave NW", "charging_level": "Level 2", "ev_network": "ChargePoint Network", "ev_connector_types": "J1772", "total_number_of_ports": 2.0, "status": "Available", "ev_pricing": null }, "geometry": { "type": "Point", "coordinates": [ -113.570993, 53.600881 ] } },
{ "type": "Feature", "properties": { "station_name": "Swtch Energy", "street_address": "14505 114 Ave NW", "charging_level": "Level 2", "ev_network": "SWTCH", "ev_connector_types": "J1772", "total_number_of_ports": 1.0, "status": "Available", "ev_pricing": "$1 per hour" }, "geometry": { "type": "Point", "coordinates": [ -113.572053, 53.562322 ] } },
{ "type": "Feature", "properties": { "station_name": "First Capital Asset Management LP", "street_address": "3803 Calgary Trail NW", "charging_level": "Level 2", "ev_network": "Non-Networked", "ev_connector_types": "J1772", "total_number_of_ports": 2.0, "status": "Available", "ev_pricing": null }, "geometry": { "type": "Point", "coordinates": [ -113.494189, 53.471706 ] } },
{ "type": "Feature", "properties": { "station_name": "SOUTHGATE VW STATION 01", "street_address": "1223 101 St SW", "charging_level": "Level 2", "ev_network": "ChargePoint Network", "ev_connector_types": "J1772", "total_number_of_ports": 1.0, "status": "Available", "ev_pricing": null }, "geometry": { "type": "Point", "coordinates": [ -113.49005, 53.42219 ] } },
{ "type": "Feature", "properties": { "station_name": "SWTCH Energy", "street_address": "500 106th Ave NE", "charging_level": "Level 2", "ev_network": "SWTCH", "ev_connector_types": "J1772", "total_number_of_ports": 3.0, "status": "Available", "ev_pricing": "$6.50 per hour" }, "geometry": { "type": "Point", "coordinates": [ -113.496002, 53.544102 ] } },
{ "type": "Feature", "properties": { "station_name": "EPCOR - Expo Centre", "street_address": "7515 118th Ave", "charging_level": "Level 2", "ev_network": "FLO", "ev_connector_types": "J1772", "total_number_of_ports": 2.0, "status": "Available", "ev_pricing": null }, "geometry": { "type": "Point", "coordinates": [ -113.456739, 53.569935 ] } },
{ "type": "Feature", "properties": { "station_name": "Jim Pattison Developments Ltd", "street_address": "3005 Hays Ridge Drive SW", "charging_level": "Level 2", "ev_network": "Non-Networked", "ev_connector_types": "J1772", "total_number_of_ports": 2.0, "status": "Planned", "ev_pricing": null }, "geometry": { "type": "Point", "coordinates": [ -113.566689, 53.412534 ] } },
{ "type": "Feature", "properties": { "station_name": "Hawkstone Plaza", "street_address": "184 Street & Lessard Road", "charging_level": "Level 2", "ev_network": "FLO", "ev_connector_types": "J1772", "total_number_of_ports": 2.0, "status": "Available", "ev_pricing": null }, "geometry": { "type": "Point", "coordinates": [ -113.641814, 53.485777 ] } },
{ "type": "Feature", "properties": { "station_name": "DERRICK STATION 1", "street_address": "1300 119 st. NW", "charging_level": "Level 2", "ev_network": "ChargePoint Network", "ev_connector_types": "J1772", "total_number_of_ports": 2.0, "status": "Available", "ev_pricing": null }, "geometry": { "type": "Point", "coordinates": [ -113.53964, 53.46882 ] } },
{ "type": "Feature", "properties": { "station_name": "BROADSTREET CASTLEBROOK #1", "street_address": "17430 110 St NW", "charging_level": "Level 2", "ev_network": "ChargePoint Network", "ev_connector_types": "J1772", "total_number_of_ports": 2.0, "status": "Available", "ev_pricing": null }, "geometry": { "type": "Point", "coordinates": [ -113.51492, 53.637714 ] } },
{ "type": "Feature", "properties": { "station_name": "Edmonton BMW Fast Charger", "street_address": "7450 ROPER ROAD NW", "charging_level": "DC Fast", "ev_network": "FLO", "ev_connector_types": "CHADEMO,J1772COMBO", "total_number_of_ports": 1.0, "status": "Available", "ev_pricing": null }, "geometry": { "type": "Point", "coordinates": [ -113.440743, 53.493671 ] } },
{ "type": "Feature", "properties": { "station_name": "SWTCH Energy Inc.", "street_address": "100 Mayfield Common NW", "charging_level": "Level 2", "ev_network": "SWTCH", "ev_connector_types": "J1772", "total_number_of_ports": 4.0, "status": "Available", "ev_pricing": null }, "geometry": { "type": "Point", "coordinates": [ -113.614, 53.544 ] } },
{ "type": "Feature", "properties": { "station_name": "Manulife Place (10180 102 Street Edmonton)", "street_address": "10180 102 Street", "charging_level": "Level 2", "ev_network": "FLO", "ev_connector_types": "J1772", "total_number_of_ports": 5.0, "status": "Available", "ev_pricing": null }, "geometry": { "type": "Point", "coordinates": [ -113.495417, 53.542454 ] } },
{ "type": "Feature", "properties": { "station_name": "Sunwapta Shopping Centre - Tesla Destination", "street_address": "10175 186 St", "charging_level": "Level 2", "ev_network": "Tesla Destination", "ev_connector_types": "TESLA", "total_number_of_ports": 4.0, "status": "Available", "ev_pricing": null }, "geometry": { "type": "Point", "coordinates": [ -113.648962, 53.542471 ] } },
{ "type": "Feature", "properties": { "station_name": "CoE - 12316-104th Ave (Oliver)", "street_address": "12316 104th Ave", "charging_level": "Level 2", "ev_network": "FLO", "ev_connector_types": "J1772", "total_number_of_ports": 2.0, "status": "Available", "ev_pricing": null }, "geometry": { "type": "Point", "coordinates": [ -113.535008, 53.546147 ] } },
{ "type": "Feature", "properties": { "station_name": "Nordstrom Rack South Edmonton - Tesla Destination", "street_address": "1910 102 St NW", "charging_level": "Level 2", "ev_network": "Tesla Destination", "ev_connector_types": "J1772,TESLA", "total_number_of_ports": 4.0, "status": "Available", "ev_pricing": null }, "geometry": { "type": "Point", "coordinates": [ -113.49207, 53.447464 ] } },
{ "type": "Feature", "properties": { "station_name": "TOYOTA ON TRAIL DELIVERY BAY", "street_address": "5210 Calgary Trail Northwest", "charging_level": "Level 2", "ev_network": "ChargePoint Network", "ev_connector_types": "J1772", "total_number_of_ports": 1.0, "status": "Available", "ev_pricing": null }, "geometry": { "type": "Point", "coordinates": [ -113.49594, 53.489665 ] } },
{ "type": "Feature", "properties": { "station_name": "Meadowbrook Centre", "street_address": "3819 34 St NW", "charging_level": "Level 2", "ev_network": "SWTCH", "ev_connector_types": "J1772", "total_number_of_ports": 2.0, "status": "Available", "ev_pricing": null }, "geometry": { "type": "Point", "coordinates": [ -113.391902, 53.473324 ] } },
{ "type": "Feature", "properties": { "station_name": "Southside Mitsubishi", "street_address": "9605 34th Ave N", "charging_level": "Level 2", "ev_network": "Non-Networked", "ev_connector_types": "J1772", "total_number_of_ports": 2.0, "status": "Available", "ev_pricing": "Free" }, "geometry": { "type": "Point", "coordinates": [ -113.478755, 53.466578 ] } },
{ "type": "Feature", "properties": { "station_name": "SWTCH Energy Inc.", "street_address": "10025 102A Ave NW", "charging_level": "Level 2", "ev_network": "SWTCH", "ev_connector_types": "J1772", "total_number_of_ports": 10.0, "status": "Available", "ev_pricing": "Free" }, "geometry": { "type": "Point", "coordinates": [ -113.491997, 53.5439 ] } },
{ "type": "Feature", "properties": { "station_name": "BROADSTREET WESTPOINTE #2", "street_address": "1159 Rosenthal Blvd", "charging_level": "Level 2", "ev_network": "ChargePoint Network", "ev_connector_types": "J1772", "total_number_of_ports": 2.0, "status": "Available", "ev_pricing": null }, "geometry": { "type": "Point", "coordinates": [ -113.707801, 53.517117 ] } },
{ "type": "Feature", "properties": { "station_name": "SWTCH Energy Inc.", "street_address": "11215 104 Ave NW", "charging_level": "Level 2", "ev_network": "SWTCH", "ev_connector_types": "J1772", "total_number_of_ports": 2.0, "status": "Available", "ev_pricing": null }, "geometry": { "type": "Point", "coordinates": [ -113.515, 53.5459 ] } },
{ "type": "Feature", "properties": { "station_name": "INDIGO PARK CED513", "street_address": "11525 Jasper Ave", "charging_level": "Level 2", "ev_network": "ChargePoint Network", "ev_connector_types": "J1772", "total_number_of_ports": 2.0, "status": "Available", "ev_pricing": null }, "geometry": { "type": "Point", "coordinates": [ -113.520885, 53.540529 ] } },
{ "type": "Feature", "properties": { "station_name": "LPS SERVICE CPF50 3", "street_address": "830 100 Street Southwest", "charging_level": "Level 2", "ev_network": "ChargePoint Network", "ev_connector_types": "J1772", "total_number_of_ports": 1.0, "status": "Available", "ev_pricing": null }, "geometry": { "type": "Point", "coordinates": [ -113.490645, 53.425939 ] } },
{ "type": "Feature", "properties": { "station_name": "Alberta Limited Partnership O/A Encor by EPCOR", "street_address": "2645 Blatchford Rd", "charging_level": "DC Fast", "ev_network": "Non-Networked", "ev_connector_types": "CHADEMO,J1772COMBO", "total_number_of_ports": 1.0, "status": "Available", "ev_pricing": null }, "geometry": { "type": "Point", "coordinates": [ -113.516758, 53.570127 ] } },
{ "type": "Feature", "properties": { "station_name": "MBHV DC 100 KW", "street_address": "2120 103A Street Southwest", "charging_level": "DC Fast", "ev_network": "FLO", "ev_connector_types": "J1772COMBO", "total_number_of_ports": 1.0, "status": "Available", "ev_pricing": null }, "geometry": { "type": "Point", "coordinates": [ -113.50007, 53.415542 ] } },
{ "type": "Feature", "properties": { "station_name": "King's University", "street_address": "9125 50th St NW", "charging_level": "Level 2", "ev_network": "Non-Networked", "ev_connector_types": "J1772", "total_number_of_ports": 1.0, "status": "Temporarily Unavailable", "ev_pricing": "Free" }, "geometry": { "type": "Point", "coordinates": [ -113.417666, 53.525414 ] } },
{ "type": "Feature", "properties": { "station_name": "SWTCH Energy Inc.", "street_address": "9925 Jasper Ave", "charging_level": "Level 2", "ev_network": "SWTCH", "ev_connector_types": "J1772", "total_number_of_ports": 6.0, "status": "Available", "ev_pricing": null }, "geometry": { "type": "Point", "coordinates": [ -113.489, 53.5411 ] } },
{ "type": "Feature", "properties": { "station_name": "LPS SERVICE CPF50 2", "street_address": "830 100 St SW", "charging_level": "Level 2", "ev_network": "ChargePoint Network", "ev_connector_types": "J1772", "total_number_of_ports": 1.0, "status": "Available", "ev_pricing": null }, "geometry": { "type": "Point", "coordinates": [ -113.490559, 53.42585 ] } },
{ "type": "Feature", "properties": { "station_name": "Green Economy", "street_address": "10572 105 St", "charging_level": "Level 2", "ev_network": "Non-Networked", "ev_connector_types": "J1772", "total_number_of_ports": 2.0, "status": "Available", "ev_pricing": null }, "geometry": { "type": "Point", "coordinates": [ -113.501496, 53.548827 ] } },
{ "type": "Feature", "properties": { "station_name": "CoE - 12418-108th Ave (Westmount North)", "street_address": "12418 108th Ave", "charging_level": "Level 2", "ev_network": "FLO", "ev_connector_types": "J1772", "total_number_of_ports": 2.0, "status": "Available", "ev_pricing": null }, "geometry": { "type": "Point", "coordinates": [ -113.536829, 53.552529 ] } },
{ "type": "Feature", "properties": { "station_name": "Capilano Library", "street_address": "9915 67 Street NW", "charging_level": "Level 2", "ev_network": "FLO", "ev_connector_types": "J1772", "total_number_of_ports": 2.0, "status": "Available", "ev_pricing": null }, "geometry": { "type": "Point", "coordinates": [ -113.432415, 53.53998 ] } },
{ "type": "Feature", "properties": { "station_name": "BROADSTREET CASTLEBROOK #6", "street_address": "17420 110 St NW", "charging_level": "Level 2", "ev_network": "ChargePoint Network", "ev_connector_types": "J1772", "total_number_of_ports": 2.0, "status": "Available", "ev_pricing": null }, "geometry": { "type": "Point", "coordinates": [ -113.5148, 53.63714 ] } },
{ "type": "Feature", "properties": { "station_name": "NORQUEST STATION 2", "street_address": "10215 108 St NW", "charging_level": "Level 2", "ev_network": "ChargePoint Network", "ev_connector_types": "J1772", "total_number_of_ports": 2.0, "status": "Available", "ev_pricing": null }, "geometry": { "type": "Point", "coordinates": [ -113.5062, 53.543545 ] } },
{ "type": "Feature", "properties": { "station_name": "C00190 149th Street", "street_address": "9431 149 St", "charging_level": "DC Fast", "ev_network": "SHELL_RECHARGE", "ev_connector_types": "J1772COMBO,TESLA", "total_number_of_ports": 1.0, "status": "Available", "ev_pricing": null }, "geometry": { "type": "Point", "coordinates": [ -113.577645, 53.531375 ] } },
{ "type": "Feature", "properties": { "station_name": "The Westin Edmonton Parkade level B", "street_address": "10135 100Th Street", "charging_level": "Level 2", "ev_network": "EV Connect", "ev_connector_types": "J1772", "total_number_of_ports": 8.0, "status": "Available", "ev_pricing": null }, "geometry": { "type": "Point", "coordinates": [ -113.49, 53.54205 ] } },
{ "type": "Feature", "properties": { "station_name": "SWTCH Energy Inc.", "street_address": "10469 80 Ave NW", "charging_level": "Level 2", "ev_network": "SWTCH", "ev_connector_types": "J1772", "total_number_of_ports": 2.0, "status": "Available", "ev_pricing": "Free" }, "geometry": { "type": "Point", "coordinates": [ -113.499987, 53.515732 ] } },
{ "type": "Feature", "properties": { "station_name": "Jim Pattison Developments Ltd", "street_address": "6296 199 St NW", "charging_level": "Level 2", "ev_network": "Non-Networked", "ev_connector_types": "J1772", "total_number_of_ports": 2.0, "status": "Planned", "ev_pricing": null }, "geometry": { "type": "Point", "coordinates": [ -113.666375, 53.495782 ] } },
{ "type": "Feature", "properties": { "station_name": "INDIGO PARK CED518", "street_address": "8019 105 St NW", "charging_level": "Level 2", "ev_network": "ChargePoint Network", "ev_connector_types": "J1772", "total_number_of_ports": 2.0, "status": "Available", "ev_pricing": null }, "geometry": { "type": "Point", "coordinates": [ -113.500221, 53.516719 ] } },
{ "type": "Feature", "properties": { "station_name": "Simons - Londonderry", "street_address": "100A 1-Londonderry Mall NW", "charging_level": "DC Fast", "ev_network": "FLO", "ev_connector_types": "CHADEMO,J1772,J1772COMBO", "total_number_of_ports": 3.0, "status": "Available", "ev_pricing": null }, "geometry": { "type": "Point", "coordinates": [ -113.445444, 53.604111 ] } },
{ "type": "Feature", "properties": { "station_name": "Go Nissan South - Edmonton - Level 2 Stations", "street_address": "1275 101 Street SW", "charging_level": "Level 2", "ev_network": "FLO", "ev_connector_types": "J1772", "total_number_of_ports": 2.0, "status": "Available", "ev_pricing": null }, "geometry": { "type": "Point", "coordinates": [ -113.491122, 53.421391 ] } },
{ "type": "Feature", "properties": { "station_name": "Century Mile Racetrack and Casino", "street_address": "4711 Airport Perimeter Road", "charging_level": "Level 2", "ev_network": "FLO", "ev_connector_types": "J1772", "total_number_of_ports": 2.0, "status": "Available", "ev_pricing": null }, "geometry": { "type": "Point", "coordinates": [ -113.559856, 53.313905 ] } },
{ "type": "Feature", "properties": { "station_name": "Fantasyland Hotel - Tesla Destination", "street_address": "8882 170 St NW", "charging_level": "Level 2", "ev_network": "Tesla Destination", "ev_connector_types": "J1772,TESLA", "total_number_of_ports": 6.0, "status": "Available", "ev_pricing": null }, "geometry": { "type": "Point", "coordinates": [ -113.627757, 53.521436 ] } },
{ "type": "Feature", "properties": { "station_name": "Southgate Centre - Tesla Supercharger", "street_address": "5015 111 St NW", "charging_level": "DC Fast", "ev_network": "Tesla", "ev_connector_types": "TESLA", "total_number_of_ports": 8.0, "status": "Available", "ev_pricing": null }, "geometry": { "type": "Point", "coordinates": [ -113.515102, 53.486557 ] } },
{ "type": "Feature", "properties": { "station_name": "Roper Road - Edmonton BMW", "street_address": "7450 Roper Road NW", "charging_level": "Level 2", "ev_network": "FLO", "ev_connector_types": "J1772", "total_number_of_ports": 4.0, "status": "Available", "ev_pricing": null }, "geometry": { "type": "Point", "coordinates": [ -113.440887, 53.493662 ] } },
{ "type": "Feature", "properties": { "station_name": "EPL STATION 2", "street_address": "7 Sir Winston Churchill Square", "charging_level": "Level 2", "ev_network": "ChargePoint Network", "ev_connector_types": "J1772", "total_number_of_ports": 2.0, "status": "Available", "ev_pricing": null }, "geometry": { "type": "Point", "coordinates": [ -113.489734, 53.542895 ] } },
{ "type": "Feature", "properties": { "station_name": "First Capital Asset Management LP", "street_address": "11904 104 Ave NW", "charging_level": "Level 2", "ev_network": "Non-Networked", "ev_connector_types": "J1772", "total_number_of_ports": 2.0, "status": "Available", "ev_pricing": null }, "geometry": { "type": "Point", "coordinates": [ -113.527889, 53.547056 ] } },
{ "type": "Feature", "properties": { "station_name": "Imperial Square", "street_address": "10604 170 Street", "charging_level": "Level 2", "ev_network": "FLO", "ev_connector_types": "J1772", "total_number_of_ports": 2.0, "status": "Available", "ev_pricing": null }, "geometry": { "type": "Point", "coordinates": [ -113.615769, 53.551514 ] } },
{ "type": "Feature", "properties": { "station_name": "CWB Gateway Banking Centre", "street_address": "10333 - 34 Avenue NW", "charging_level": "Level 2", "ev_network": "FLO", "ev_connector_types": "J1772", "total_number_of_ports": 2.0, "status": "Available", "ev_pricing": null }, "geometry": { "type": "Point", "coordinates": [ -113.49512, 53.467069 ] } },
{ "type": "Feature", "properties": { "station_name": "EPCOR - Terwillegar Rec Center", "street_address": "2051 Leger Rd NW", "charging_level": "Level 2", "ev_network": "FLO", "ev_connector_types": "J1772", "total_number_of_ports": 4.0, "status": "Available", "ev_pricing": null }, "geometry": { "type": "Point", "coordinates": [ -113.583025, 53.456571 ] } },
{ "type": "Feature", "properties": { "station_name": "SWTCH Energy", "street_address": "16615 109 Ave NW", "charging_level": "Level 2", "ev_network": "SWTCH", "ev_connector_types": "J1772", "total_number_of_ports": 2.0, "status": "Available", "ev_pricing": "Free" }, "geometry": { "type": "Point", "coordinates": [ -113.608002, 53.554901 ] } },
{ "type": "Feature", "properties": { "station_name": "TangoNetworks", "street_address": "9437 47 St NW", "charging_level": "Level 2", "ev_network": "Non-Networked", "ev_connector_types": "J1772", "total_number_of_ports": 1.0, "status": "Available", "ev_pricing": null }, "geometry": { "type": "Point", "coordinates": [ -113.40708, 53.53269 ] } },
{ "type": "Feature", "properties": { "station_name": "BROADSTREET SIERRA #1", "street_address": "21809 91a Ave NW", "charging_level": "Level 2", "ev_network": "ChargePoint Network", "ev_connector_types": "J1772", "total_number_of_ports": 2.0, "status": "Available", "ev_pricing": null }, "geometry": { "type": "Point", "coordinates": [ -113.69408, 53.525852 ] } },
{ "type": "Feature", "properties": { "station_name": "DERRICK STATION 3", "street_address": "3500 119 St NW", "charging_level": "Level 2", "ev_network": "ChargePoint Network", "ev_connector_types": "J1772", "total_number_of_ports": 2.0, "status": "Available", "ev_pricing": null }, "geometry": { "type": "Point", "coordinates": [ -113.53951, 53.46886 ] } },
{ "type": "Feature", "properties": { "station_name": "Bavaria BMW", "street_address": "18925 Stony Plain Road", "charging_level": "DC Fast", "ev_network": "FLO", "ev_connector_types": "CHADEMO,J1772COMBO", "total_number_of_ports": 1.0, "status": "Available", "ev_pricing": null }, "geometry": { "type": "Point", "coordinates": [ -113.650789, 53.540589 ] } },
{ "type": "Feature", "properties": { "station_name": "Tamarak Heights", "street_address": "730 Tamarack Heights", "charging_level": "Level 2", "ev_network": "FLO", "ev_connector_types": "J1772", "total_number_of_ports": 4.0, "status": "Available", "ev_pricing": null }, "geometry": { "type": "Point", "coordinates": [ -113.364902, 53.47834 ] } },
{ "type": "Feature", "properties": { "station_name": "Edmonton Tower - Tesla Destination", "street_address": "10111-104  Ave NW", "charging_level": "Level 2", "ev_network": "Tesla Destination", "ev_connector_types": "TESLA", "total_number_of_ports": 8.0, "status": "Available", "ev_pricing": null }, "geometry": { "type": "Point", "coordinates": [ -113.49464, 53.54562 ] } },
{ "type": "Feature", "properties": { "station_name": "Association of Alberta Municipalities", "street_address": "8616 51 Ave NW", "charging_level": "Level 2", "ev_network": "Non-Networked", "ev_connector_types": "J1772", "total_number_of_ports": 4.0, "status": "Available", "ev_pricing": null }, "geometry": { "type": "Point", "coordinates": [ -113.455955, 53.488332 ] } },
{ "type": "Feature", "properties": { "station_name": "BROADSTREET WESTPOINTE #6", "street_address": "1159 Rosenthal Blvd", "charging_level": "Level 2", "ev_network": "ChargePoint Network", "ev_connector_types": "J1772", "total_number_of_ports": 2.0, "status": "Available", "ev_pricing": null }, "geometry": { "type": "Point", "coordinates": [ -113.70798, 53.516663 ] } },
{ "type": "Feature", "properties": { "station_name": "Riverview Tower", "street_address": "10045 117 St NW", "charging_level": "Level 2", "ev_network": "FLO", "ev_connector_types": "J1772", "total_number_of_ports": 2.0, "status": "Available", "ev_pricing": null }, "geometry": { "type": "Point", "coordinates": [ -113.522308, 53.539984 ] } },
{ "type": "Feature", "properties": { "station_name": "Currents of WIndermere - Tesla Supercharger", "street_address": "6004 Currents Dr NW", "charging_level": "DC Fast", "ev_network": "Tesla", "ev_connector_types": "TESLA", "total_number_of_ports": 12.0, "status": "Available", "ev_pricing": null }, "geometry": { "type": "Point", "coordinates": [ -113.6104, 53.436342 ] } },
{ "type": "Feature", "properties": { "station_name": "Oasis Wellness Centre", "street_address": "13613, 163 Street", "charging_level": "Level 2", "ev_network": "FLO", "ev_connector_types": "J1772", "total_number_of_ports": 2.0, "status": "Available", "ev_pricing": null }, "geometry": { "type": "Point", "coordinates": [ -113.601654, 53.599128 ] } },
{ "type": "Feature", "properties": { "station_name": "Encor by EPCOR", "street_address": "17740 69 Avenue North West", "charging_level": "Level 2", "ev_network": "Non-Networked", "ev_connector_types": "J1772", "total_number_of_ports": 4.0, "status": "Planned", "ev_pricing": null }, "geometry": { "type": "Point", "coordinates": [ -113.628403, 53.503454 ] } },
{ "type": "Feature", "properties": { "station_name": "C81427 - Edmonton Lewis Farms", "street_address": "9805 Winterburn Rd", "charging_level": "DC Fast", "ev_network": "SHELL_RECHARGE", "ev_connector_types": "CHADEMO,J1772COMBO", "total_number_of_ports": 2.0, "status": "Available", "ev_pricing": null }, "geometry": { "type": "Point", "coordinates": [ -113.688047, 53.536492 ] } },
{ "type": "Feature", "properties": { "station_name": "EPCOR - Hugh J Bolton", "street_address": "12116 107 St NW", "charging_level": "Level 2", "ev_network": "FLO", "ev_connector_types": "J1772", "total_number_of_ports": 4.0, "status": "Available", "ev_pricing": null }, "geometry": { "type": "Point", "coordinates": [ -113.505295, 53.574922 ] } },
{ "type": "Feature", "properties": { "station_name": "Encor by EPCOR", "street_address": "11211 142th St NW", "charging_level": "DC Fast", "ev_network": "Non-Networked", "ev_connector_types": "J1772COMBO", "total_number_of_ports": 1.0, "status": "Planned", "ev_pricing": null }, "geometry": { "type": "Point", "coordinates": [ -113.565757, 53.560706 ] } },
{ "type": "Feature", "properties": { "station_name": "Encor by EPCOR", "street_address": "9797 Jasper Avenue", "charging_level": "Level 2", "ev_network": "Non-Networked", "ev_connector_types": "J1772", "total_number_of_ports": 4.0, "status": "Planned", "ev_pricing": null }, "geometry": { "type": "Point", "coordinates": [ -113.48608, 53.54138 ] } },
{ "type": "Feature", "properties": { "station_name": "LPS SERVICE CPF50 1", "street_address": "830 100 St SW", "charging_level": "Level 2", "ev_network": "ChargePoint Network", "ev_connector_types": "J1772", "total_number_of_ports": 1.0, "status": "Available", "ev_pricing": null }, "geometry": { "type": "Point", "coordinates": [ -113.490559, 53.42585 ] } },
{ "type": "Feature", "properties": { "station_name": "NORDENVW SHOP1", "street_address": "14703 137 Ave NW", "charging_level": "Level 2", "ev_network": "ChargePoint Network", "ev_connector_types": "J1772", "total_number_of_ports": 1.0, "status": "Available", "ev_pricing": null }, "geometry": { "type": "Point", "coordinates": [ -113.576148, 53.598591 ] } },
{ "type": "Feature", "properties": { "station_name": "Don Wheaton Chevrolet Inc - Customer Pay Level", "street_address": "10727 82nd Ave", "charging_level": "Level 2", "ev_network": "FLO", "ev_connector_types": "J1772", "total_number_of_ports": 3.0, "status": "Available", "ev_pricing": null }, "geometry": { "type": "Point", "coordinates": [ -113.506718, 53.517729 ] } },
{ "type": "Feature", "properties": { "station_name": "First Capital Asset Management LP", "street_address": "9499 137 Ave NW", "charging_level": "Level 2", "ev_network": "Non-Networked", "ev_connector_types": "J1772", "total_number_of_ports": 1.0, "status": "Available", "ev_pricing": null }, "geometry": { "type": "Point", "coordinates": [ -113.490614, 53.598142 ] } },
{ "type": "Feature", "properties": { "station_name": "QuadReal - Commerce Place - Edmonton", "street_address": "10155-102 Street", "charging_level": "Level 2", "ev_network": "FLO", "ev_connector_types": "J1772", "total_number_of_ports": 2.0, "status": "Available", "ev_pricing": null }, "geometry": { "type": "Point", "coordinates": [ -113.494805, 53.541848 ] } },
{ "type": "Feature", "properties": { "station_name": "Swtch Energy", "street_address": "3819 34th St NW", "charging_level": "Level 2", "ev_network": "SWTCH", "ev_connector_types": "J1772", "total_number_of_ports": 2.0, "status": "Available", "ev_pricing": "$1.50 per hour" }, "geometry": { "type": "Point", "coordinates": [ -113.391387, 53.473725 ] } },
{ "type": "Feature", "properties": { "station_name": "CoE - 108 Street - 99 Ave (Legislature)", "street_address": "108 Street - 99 Ave", "charging_level": "Level 2", "ev_network": "FLO", "ev_connector_types": "J1772", "total_number_of_ports": 2.0, "status": "Available", "ev_pricing": null }, "geometry": { "type": "Point", "coordinates": [ -113.50769, 53.537205 ] } },
{ "type": "Feature", "properties": { "station_name": "BROADSTREET SIERRA #2", "street_address": "21809 91a ave NW", "charging_level": "Level 2", "ev_network": "ChargePoint Network", "ev_connector_types": "J1772", "total_number_of_ports": 2.0, "status": "Available", "ev_pricing": null }, "geometry": { "type": "Point", "coordinates": [ -113.69394, 53.525814 ] } },
{ "type": "Feature", "properties": { "station_name": "Ice District Central Parkade", "street_address": "10220-103 avenue", "charging_level": "Level 2", "ev_network": "FLO", "ev_connector_types": "J1772", "total_number_of_ports": 8.0, "status": "Available", "ev_pricing": null }, "geometry": { "type": "Point", "coordinates": [ -113.496748, 53.545029 ] } },
{ "type": "Feature", "properties": { "station_name": "Century Casino and Hotel Edmonton", "street_address": "13103 Fort Road", "charging_level": "Level 2", "ev_network": "FLO", "ev_connector_types": "J1772", "total_number_of_ports": 4.0, "status": "Available", "ev_pricing": null }, "geometry": { "type": "Point", "coordinates": [ -113.432802, 53.58984 ] } },
{ "type": "Feature", "properties": { "station_name": "Encor by EPCOR", "street_address": "2704 17th St NW", "charging_level": "Level 2", "ev_network": "Non-Networked", "ev_connector_types": "J1772", "total_number_of_ports": 4.0, "status": "Planned", "ev_pricing": null }, "geometry": { "type": "Point", "coordinates": [ -113.368976, 53.458957 ] } },
{ "type": "Feature", "properties": { "station_name": "CoE - 12420 106th Ave (Westmount South)", "street_address": "12420 106th Ave", "charging_level": "Level 2", "ev_network": "FLO", "ev_connector_types": "J1772", "total_number_of_ports": 2.0, "status": "Available", "ev_pricing": null }, "geometry": { "type": "Point", "coordinates": [ -113.537353, 53.549344 ] } },
{ "type": "Feature", "properties": { "station_name": "Main Dealership", "street_address": "10220 170 St NW", "charging_level": "Level 2", "ev_network": "LOOP", "ev_connector_types": "J1772", "total_number_of_ports": 2.0, "status": "Available", "ev_pricing": "$1 activation fee; $0.05 per minute" }, "geometry": { "type": "Point", "coordinates": [ -113.61715, 53.54357 ] } },
{ "type": "Feature", "properties": { "station_name": "Edmonton Public Library - Jasper Place Branch", "street_address": "9010 156th St NW", "charging_level": "Level 2", "ev_network": "Non-Networked", "ev_connector_types": "J1772", "total_number_of_ports": 1.0, "status": "Available", "ev_pricing": "Free" }, "geometry": { "type": "Point", "coordinates": [ -113.590729, 53.523582 ] } },
{ "type": "Feature", "properties": { "station_name": "Southgrow Regional Initiative", "street_address": "9503 34 Ave NW", "charging_level": "DC Fast", "ev_network": "Non-Networked", "ev_connector_types": "J1772,J1772COMBO", "total_number_of_ports": 3.0, "status": "Available", "ev_pricing": null }, "geometry": { "type": "Point", "coordinates": [ -113.47774, 53.46715 ] } },
{ "type": "Feature", "properties": { "station_name": "First Capital Asset Management LP", "street_address": "10425 121 St", "charging_level": "Level 2", "ev_network": "Non-Networked", "ev_connector_types": "J1772", "total_number_of_ports": 4.0, "status": "Available", "ev_pricing": null }, "geometry": { "type": "Point", "coordinates": [ -113.5305, 53.54698 ] } },
{ "type": "Feature", "properties": { "station_name": "NORQUEST STATION 1", "street_address": "10215 108 St NW", "charging_level": "Level 2", "ev_network": "ChargePoint Network", "ev_connector_types": "J1772", "total_number_of_ports": 2.0, "status": "Available", "ev_pricing": null }, "geometry": { "type": "Point", "coordinates": [ -113.505187, 53.544285 ] } },
{ "type": "Feature", "properties": { "station_name": "Go Nissan South - Edmonton - Smart DC", "street_address": "1275 101 St SW", "charging_level": "DC Fast", "ev_network": "FLO", "ev_connector_types": "CHADEMO,J1772COMBO", "total_number_of_ports": 1.0, "status": "Available", "ev_pricing": null }, "geometry": { "type": "Point", "coordinates": [ -113.490666, 53.421405 ] } },
{ "type": "Feature", "properties": { "station_name": "Encor by EPCOR", "street_address": "12116 107th St NW", "charging_level": "Level 2", "ev_network": "Non-Networked", "ev_connector_types": "J1772", "total_number_of_ports": 4.0, "status": "Planned", "ev_pricing": null }, "geometry": { "type": "Point", "coordinates": [ -113.50645, 53.57601 ] } },
{ "type": "Feature", "properties": { "station_name": "SWTCH Energy Inc", "street_address": "10011 184 St NW", "charging_level": "Level 2", "ev_network": "Non-Networked", "ev_connector_types": "J1772", "total_number_of_ports": 2.0, "status": "Planned", "ev_pricing": null }, "geometry": { "type": "Point", "coordinates": [ -113.639071, 53.538153 ] } },
{ "type": "Feature", "properties": { "station_name": "BROADSTREET KESWICK 3", "street_address": "1820 Keene Crescent Southwest", "charging_level": "Level 2", "ev_network": "ChargePoint Network", "ev_connector_types": "J1772", "total_number_of_ports": 2.0, "status": "Available", "ev_pricing": null }, "geometry": { "type": "Point", "coordinates": [ -113.617293, 53.417969 ] } },
{ "type": "Feature", "properties": { "station_name": "Encor by EPCOR", "street_address": "2051 Leger Road North West", "charging_level": "Level 2", "ev_network": "Non-Networked", "ev_connector_types": "J1772", "total_number_of_ports": 4.0, "status": "Planned", "ev_pricing": null }, "geometry": { "type": "Point", "coordinates": [ -113.584872, 53.459607 ] } },
{ "type": "Feature", "properties": { "station_name": "INDIGO PARK CED512-02", "street_address": "10305 106 St", "charging_level": "Level 2", "ev_network": "ChargePoint Network", "ev_connector_types": "J1772", "total_number_of_ports": 2.0, "status": "Available", "ev_pricing": null }, "geometry": { "type": "Point", "coordinates": [ -113.502401, 53.544968 ] } },
{ "type": "Feature", "properties": { "station_name": "Swtch Energy", "street_address": "10245 102 St NW", "charging_level": "Level 2", "ev_network": "SWTCH", "ev_connector_types": "J1772", "total_number_of_ports": 15.0, "status": "Available", "ev_pricing": "$1.50 per hour" }, "geometry": { "type": "Point", "coordinates": [ -113.495357, 53.544122 ] } },
{ "type": "Feature", "properties": { "station_name": "TOYOTA ON TRAIL SERVICE PARKING", "street_address": "5210 Calgary Trail Northwest", "charging_level": "Level 2", "ev_network": "ChargePoint Network", "ev_connector_types": "J1772", "total_number_of_ports": 2.0, "status": "Available", "ev_pricing": null }, "geometry": { "type": "Point", "coordinates": [ -113.496294, 53.489154 ] } },
{ "type": "Feature", "properties": { "station_name": "BROADSTREET CASTLEBROOK #4", "street_address": "17440 110 St NW", "charging_level": "Level 2", "ev_network": "ChargePoint Network", "ev_connector_types": "J1772", "total_number_of_ports": 2.0, "status": "Available", "ev_pricing": null }, "geometry": { "type": "Point", "coordinates": [ -113.51583, 53.63715 ] } },
{ "type": "Feature", "properties": { "station_name": "Blatchford Development, City Centre", "street_address": "Blatchford Development City Centre", "charging_level": "DC Fast", "ev_network": "Non-Networked", "ev_connector_types": "CHADEMO,J1772COMBO", "total_number_of_ports": 1.0, "status": "Planned", "ev_pricing": null }, "geometry": { "type": "Point", "coordinates": [ -113.518693, 53.575102 ] } },
{ "type": "Feature", "properties": { "station_name": "Parkwest Business Center 4", "street_address": "15015 123 Ave", "charging_level": "Level 2", "ev_network": "FLO", "ev_connector_types": "J1772", "total_number_of_ports": 2.0, "status": "Available", "ev_pricing": null }, "geometry": { "type": "Point", "coordinates": [ -113.580653, 53.576491 ] } },
{ "type": "Feature", "properties": { "station_name": "Four Points by Sheraton Edmonton Gateway - Tesla Destination", "street_address": "10010 12th Ave SW", "charging_level": "Level 2", "ev_network": "Tesla Destination", "ev_connector_types": "TESLA", "total_number_of_ports": 1.0, "status": "Available", "ev_pricing": null }, "geometry": { "type": "Point", "coordinates": [ -113.487865, 53.42421 ] } },
{ "type": "Feature", "properties": { "station_name": "Swtch Energy", "street_address": "10405 120 St NW", "charging_level": "Level 2", "ev_network": "SWTCH", "ev_connector_types": "J1772", "total_number_of_ports": 2.0, "status": "Available", "ev_pricing": "$1.50 per hour" }, "geometry": { "type": "Point", "coordinates": [ -113.525912, 53.546514 ] } },
{ "type": "Feature", "properties": { "station_name": "Heritage Valley Heights - Buiding 2", "street_address": "1250 Podersky Wynd", "charging_level": "Level 2", "ev_network": "FLO", "ev_connector_types": "J1772", "total_number_of_ports": 2.0, "status": "Available", "ev_pricing": null }, "geometry": { "type": "Point", "coordinates": [ -113.559333, 53.41156 ] } },
{ "type": "Feature", "properties": { "station_name": "JPD - Lewis Estates", "street_address": "1264 Webber Greens Drive", "charging_level": "Level 2", "ev_network": "FLO", "ev_connector_types": "J1772", "total_number_of_ports": 6.0, "status": "Available", "ev_pricing": null }, "geometry": { "type": "Point", "coordinates": [ -113.687059, 53.529663 ] } },
{ "type": "Feature", "properties": { "station_name": "Green Economy", "street_address": "9812 87 Ave NW", "charging_level": "DC Fast", "ev_network": "Non-Networked", "ev_connector_types": "J1772COMBO", "total_number_of_ports": 2.0, "status": "Available", "ev_pricing": null }, "geometry": { "type": "Point", "coordinates": [ -113.46871, 53.55014 ] } },
{ "type": "Feature", "properties": { "station_name": "Don Wheaton Chevrolet - Edmonton - Fast Charger", "street_address": "10727 82nd Ave", "charging_level": "DC Fast", "ev_network": "FLO", "ev_connector_types": "CHADEMO,J1772COMBO", "total_number_of_ports": 1.0, "status": "Available", "ev_pricing": null }, "geometry": { "type": "Point", "coordinates": [ -113.507249, 53.517322 ] } },
{ "type": "Feature", "properties": { "station_name": "Indigo Parking - Edmonton City Centre", "street_address": "10025 102A Ave NW", "charging_level": "Level 2", "ev_network": "Non-Networked", "ev_connector_types": "J1772", "total_number_of_ports": 2.0, "status": "Available", "ev_pricing": "$5.70 per hour" }, "geometry": { "type": "Point", "coordinates": [ -113.498579, 53.543282 ] } },
{ "type": "Feature", "properties": { "station_name": "Westside Acura", "street_address": "17707- 111 Ave.", "charging_level": "Level 2", "ev_network": "FLO", "ev_connector_types": "J1772", "total_number_of_ports": 2.0, "status": "Available", "ev_pricing": null }, "geometry": { "type": "Point", "coordinates": [ -113.624996, 53.559153 ] } },
{ "type": "Feature", "properties": { "station_name": "Swtch Energy", "street_address": "10104 103 Ave NW", "charging_level": "Level 2", "ev_network": "SWTCH", "ev_connector_types": "J1772", "total_number_of_ports": 1.0, "status": "Available", "ev_pricing": "$1.50 per hr" }, "geometry": { "type": "Point", "coordinates": [ -113.494558, 53.545023 ] } },
{ "type": "Feature", "properties": { "station_name": "NAKI TransitTerminal", "street_address": "15520 Campbell Road", "charging_level": "Level 2", "ev_network": "FLO", "ev_connector_types": "J1772", "total_number_of_ports": 4.0, "status": "Available", "ev_pricing": null }, "geometry": { "type": "Point", "coordinates": [ -113.593845, 53.615842 ] } },
{ "type": "Feature", "properties": { "station_name": "IKEA 349 EDMONTON CX2", "street_address": "1307 102 St NW", "charging_level": "Level 2", "ev_network": "ChargePoint Network", "ev_connector_types": "J1772", "total_number_of_ports": 2.0, "status": "Available", "ev_pricing": null }, "geometry": { "type": "Point", "coordinates": [ -113.490328, 53.443275 ] } },
{ "type": "Feature", "properties": { "station_name": "Gescan Edmonton", "street_address": "15103 121A Ave NW", "charging_level": "Level 2", "ev_network": "FLO", "ev_connector_types": "J1772", "total_number_of_ports": 2.0, "status": "Available", "ev_pricing": null }, "geometry": { "type": "Point", "coordinates": [ -113.583076, 53.573147 ] } },
{ "type": "Feature", "properties": { "station_name": "SmartCentres - Tesla Supercharger", "street_address": "13712 40 St NW", "charging_level": "DC Fast", "ev_network": "Tesla", "ev_connector_types": "TESLA", "total_number_of_ports": 12.0, "status": "Available", "ev_pricing": null }, "geometry": { "type": "Point", "coordinates": [ -113.404236, 53.598292 ] } },
{ "type": "Feature", "properties": { "station_name": "City of Edmonton - Millwood Public Library", "street_address": "2610 Hewes Way NW", "charging_level": "Level 2", "ev_network": "FLO", "ev_connector_types": "J1772", "total_number_of_ports": 3.0, "status": "Available", "ev_pricing": null }, "geometry": { "type": "Point", "coordinates": [ -113.427544, 53.456805 ] } },
{ "type": "Feature", "properties": { "station_name": "EPCOR - DCFC 2 - Blatchford", "street_address": "530 de la Montagne", "charging_level": "DC Fast", "ev_network": "FLO", "ev_connector_types": "CHADEMO,J1772COMBO", "total_number_of_ports": 1.0, "status": "Available", "ev_pricing": null }, "geometry": { "type": "Point", "coordinates": [ -113.521373, 53.568887 ] } },
{ "type": "Feature", "properties": { "station_name": "SWTCH Energy", "street_address": "10060 Jasper Ave", "charging_level": "Level 2", "ev_network": "SWTCH", "ev_connector_types": "J1772", "total_number_of_ports": 1.0, "status": "Available", "ev_pricing": "$2 per hour" }, "geometry": { "type": "Point", "coordinates": [ -113.492996, 53.541401 ] } },
{ "type": "Feature", "properties": { "station_name": "BROADSTREET WESTPOINTE #4", "street_address": "1159 Rosenthal Blvd", "charging_level": "Level 2", "ev_network": "ChargePoint Network", "ev_connector_types": "J1772", "total_number_of_ports": 2.0, "status": "Available", "ev_pricing": null }, "geometry": { "type": "Point", "coordinates": [ -113.70756, 53.517025 ] } },
{ "type": "Feature", "properties": { "station_name": "SWTCH Energy", "street_address": "9499 137 Ave NW", "charging_level": "Level 2", "ev_network": "SWTCH", "ev_connector_types": "J1772", "total_number_of_ports": 1.0, "status": "Available", "ev_pricing": "Free" }, "geometry": { "type": "Point", "coordinates": [ -113.487, 53.598301 ] } },
{ "type": "Feature", "properties": { "station_name": "EPCOR - DCFC - Telus World of Science", "street_address": "11211 142 St NW", "charging_level": "DC Fast", "ev_network": "FLO", "ev_connector_types": "J1772COMBO", "total_number_of_ports": 1.0, "status": "Available", "ev_pricing": null }, "geometry": { "type": "Point", "coordinates": [ -113.565244, 53.561065 ] } },
{ "type": "Feature", "properties": { "station_name": "SWTCH Energy Inc.", "street_address": "16615 109 Ave NW", "charging_level": "Level 2", "ev_network": "SWTCH", "ev_connector_types": "J1772", "total_number_of_ports": 6.0, "status": "Available", "ev_pricing": null }, "geometry": { "type": "Point", "coordinates": [ -113.608, 53.5549 ] } },
{ "type": "Feature", "properties": { "station_name": "West Edmonton Mall Public", "street_address": "8882 170 St NW", "charging_level": "Level 2", "ev_network": "LOOP", "ev_connector_types": "J1772", "total_number_of_ports": 6.0, "status": "Available", "ev_pricing": "$1 activation fee; $0.05 per kWh" }, "geometry": { "type": "Point", "coordinates": [ -113.62642, 53.524 ] } },
{ "type": "Feature", "properties": { "station_name": "BROADSTREET CASTLEBROOK #8", "street_address": "17410 110 St NW", "charging_level": "Level 2", "ev_network": "ChargePoint Network", "ev_connector_types": "J1772", "total_number_of_ports": 2.0, "status": "Available", "ev_pricing": null }, "geometry": { "type": "Point", "coordinates": [ -113.51382, 53.63744 ] } },
{ "type": "Feature", "properties": { "station_name": "Roper Ridge Business Park", "street_address": "5681 70 Street", "charging_level": "Level 2", "ev_network": "FLO", "ev_connector_types": "J1772", "total_number_of_ports": 2.0, "status": "Available", "ev_pricing": null }, "geometry": { "type": "Point", "coordinates": [ -113.433604, 53.493643 ] } },
{ "type": "Feature", "properties": { "station_name": "LOE MAIN LOE NEW", "street_address": "11204 170 Street Northwest", "charging_level": "Level 2", "ev_network": "ChargePoint Network", "ev_connector_types": "J1772", "total_number_of_ports": 2.0, "status": "Available", "ev_pricing": null }, "geometry": { "type": "Point", "coordinates": [ -113.616369, 53.560614 ] } }
]
}
