{
"type": "FeatureCollection",
"name": "lrt_stops",
"crs": { "type": "name", "properties": { "name": "urn:ogc:def:crs:OGC:1.3:CRS84" } },
"features": [
{ "type": "Feature", "properties": { "lrt_stop_number": 1516.0, "lrt_stop_description": "Churchill Stop" }, "geometry": { "type": "Point", "coordinates": [ -113.489376, 53.543471 ] } },
{ "type": "Feature", "properties": { "lrt_stop_number": 2162.0, "lrt_stop_description": "Holyrood Stop" }, "geometry": { "type": "Point", "coordinates": [ -113.457534, 53.528045 ] } },
{ "type": "Feature", "properties": { "lrt_stop_number": 22993.0, "lrt_stop_description": "Muttart Stop" }, "geometry": { "type": "Point", "coordinates": [ -113.479931, 53.536271 ] } },
{ "type": "Feature", "properties": { "lrt_stop_number": 19262.0, "lrt_stop_description": "Corona Station" }, "geometry": { "type": "Point", "coordinates": [ -113.505358, 53.540977 ] } },
{ "type": "Feature", "properties": { "lrt_stop_number": 21152.0, "lrt_stop_description": "South Campus Ft Edmonton Station" }, "geometry": { "type": "Point", "coordinates": [ -113.528498, 53.502283 ] } },
{ "type": "Feature", "properties": { "lrt_stop_number": 20141.0, "lrt_stop_description": "Health Sciences Jubilee Station" }, "geometry": { "type": "Point", "coordinates": [ -113.525818, 53.520388 ] } },
{ "type": "Feature", "properties": { "lrt_stop_number": 21151.0, "lrt_stop_description": "South Campus Ft Edmonton Station" }, "geometry": { "type": "Point", "coordinates": [ -113.528414, 53.50294 ] } },
{ "type": "Feature", "properties": { "lrt_stop_number": 21131.0, "lrt_stop_description": "Southgate Station" }, "geometry": { "type": "Point", "coordinates": [ -113.516734, 53.486054 ] } },
{ "type": "Feature", "properties": { "lrt_stop_number": 3606.0, "lrt_stop_description": "Grey Nuns Stop" }, "geometry": { "type": "Point", "coordinates": [ -113.434653, 53.46302 ] } },
{ "type": "Feature", "properties": { "lrt_stop_number": 3875.0, "lrt_stop_description": "Millbourne Woodvale Stop" }, "geometry": { "type": "Point", "coordinates": [ -113.438959, 53.475316 ] } },
{ "type": "Feature", "properties": { "lrt_stop_number": 19351.0, "lrt_stop_description": "Central Station" }, "geometry": { "type": "Point", "coordinates": [ -113.491717, 53.541035 ] } },
{ "type": "Feature", "properties": { "lrt_stop_number": 18762.0, "lrt_stop_description": "Churchill Station" }, "geometry": { "type": "Point", "coordinates": [ -113.488972, 53.543729 ] } },
{ "type": "Feature", "properties": { "lrt_stop_number": 2877.0, "lrt_stop_description": "Davies Station" }, "geometry": { "type": "Point", "coordinates": [ -113.443907, 53.499621 ] } },
{ "type": "Feature", "properties": { "lrt_stop_number": 22990.0, "lrt_stop_description": "Strathearn Stop" }, "geometry": { "type": "Point", "coordinates": [ -113.462462, 53.53169 ] } },
{ "type": "Feature", "properties": { "lrt_stop_number": 99812.0, "lrt_stop_description": "McKernan Belgravia Station" }, "geometry": { "type": "Point", "coordinates": [ -113.526199, 53.512603 ] } },
{ "type": "Feature", "properties": { "lrt_stop_number": 20142.0, "lrt_stop_description": "Health Sciences Jubilee Station" }, "geometry": { "type": "Point", "coordinates": [ -113.525923, 53.519935 ] } },
{ "type": "Feature", "properties": { "lrt_stop_number": 19811.0, "lrt_stop_description": "Stadium Station" }, "geometry": { "type": "Point", "coordinates": [ -113.47046, 53.560126 ] } },
{ "type": "Feature", "properties": { "lrt_stop_number": 19812.0, "lrt_stop_description": "Stadium Station" }, "geometry": { "type": "Point", "coordinates": [ -113.471089, 53.559764 ] } },
{ "type": "Feature", "properties": { "lrt_stop_number": 1513.0, "lrt_stop_description": "102 Street Stop" }, "geometry": { "type": "Point", "coordinates": [ -113.494138, 53.54316 ] } },
{ "type": "Feature", "properties": { "lrt_stop_number": 21132.0, "lrt_stop_description": "Southgate Station" }, "geometry": { "type": "Point", "coordinates": [ -113.516892, 53.485344 ] } },
{ "type": "Feature", "properties": { "lrt_stop_number": 1515.0, "lrt_stop_description": "Churchill Stop" }, "geometry": { "type": "Point", "coordinates": [ -113.490133, 53.543464 ] } },
{ "type": "Feature", "properties": { "lrt_stop_number": 19851.0, "lrt_stop_description": "Bay Enterprise Square Station" }, "geometry": { "type": "Point", "coordinates": [ -113.497985, 53.54091 ] } },
{ "type": "Feature", "properties": { "lrt_stop_number": 2717.0, "lrt_stop_description": "Avonmore Stop" }, "geometry": { "type": "Point", "coordinates": [ -113.455086, 53.510363 ] } },
{ "type": "Feature", "properties": { "lrt_stop_number": 11141.0, "lrt_stop_description": "Kingsway RAH Station" }, "geometry": { "type": "Point", "coordinates": [ -113.501392, 53.557963 ] } },
{ "type": "Feature", "properties": { "lrt_stop_number": 11142.0, "lrt_stop_description": "Kingsway RAH Station" }, "geometry": { "type": "Point", "coordinates": [ -113.500684, 53.557487 ] } },
{ "type": "Feature", "properties": { "lrt_stop_number": 23162.0, "lrt_stop_description": "University Station" }, "geometry": { "type": "Point", "coordinates": [ -113.521555, 53.525145 ] } },
{ "type": "Feature", "properties": { "lrt_stop_number": 1514.0, "lrt_stop_description": "102 Street Stop" }, "geometry": { "type": "Point", "coordinates": [ -113.49521, 53.543192 ] } },
{ "type": "Feature", "properties": { "lrt_stop_number": 19252.0, "lrt_stop_description": "Government Station" }, "geometry": { "type": "Point", "coordinates": [ -113.510327, 53.535885 ] } },
{ "type": "Feature", "properties": { "lrt_stop_number": 11172.0, "lrt_stop_description": "MacEwan Station" }, "geometry": { "type": "Point", "coordinates": [ -113.49818, 53.547684 ] } },
{ "type": "Feature", "properties": { "lrt_stop_number": 19852.0, "lrt_stop_description": "Bay Enterprise Square Station" }, "geometry": { "type": "Point", "coordinates": [ -113.498842, 53.540936 ] } },
{ "type": "Feature", "properties": { "lrt_stop_number": 2715.0, "lrt_stop_description": "Bonnie Doon Stop" }, "geometry": { "type": "Point", "coordinates": [ -113.455351, 53.519699 ] } },
{ "type": "Feature", "properties": { "lrt_stop_number": 79772.0, "lrt_stop_description": "Clareview Station" }, "geometry": { "type": "Point", "coordinates": [ -113.411819, 53.601592 ] } },
{ "type": "Feature", "properties": { "lrt_stop_number": 2687.0, "lrt_stop_description": "Davies Station" }, "geometry": { "type": "Point", "coordinates": [ -113.44432, 53.500161 ] } },
{ "type": "Feature", "properties": { "lrt_stop_number": 78302.0, "lrt_stop_description": "Belvedere Station" }, "geometry": { "type": "Point", "coordinates": [ -113.433239, 53.588187 ] } },
{ "type": "Feature", "properties": { "lrt_stop_number": 2006.0, "lrt_stop_description": "Holyrood Stop" }, "geometry": { "type": "Point", "coordinates": [ -113.457359, 53.527466 ] } },
{ "type": "Feature", "properties": { "lrt_stop_number": 18761.0, "lrt_stop_description": "Churchill Station" }, "geometry": { "type": "Point", "coordinates": [ -113.489045, 53.54442 ] } },
{ "type": "Feature", "properties": { "lrt_stop_number": 19251.0, "lrt_stop_description": "Government Station" }, "geometry": { "type": "Point", "coordinates": [ -113.510224, 53.536573 ] } },
{ "type": "Feature", "properties": { "lrt_stop_number": 2716.0, "lrt_stop_description": "Bonnie Doon Stop" }, "geometry": { "type": "Point", "coordinates": [ -113.455496, 53.519056 ] } },
{ "type": "Feature", "properties": { "lrt_stop_number": 79771.0, "lrt_stop_description": "Clareview Station" }, "geometry": { "type": "Point", "coordinates": [ -113.41125, 53.60182 ] } },
{ "type": "Feature", "properties": { "lrt_stop_number": 3607.0, "lrt_stop_description": "Grey Nuns Stop" }, "geometry": { "type": "Point", "coordinates": [ -113.434515, 53.462448 ] } },
{ "type": "Feature", "properties": { "lrt_stop_number": 78301.0, "lrt_stop_description": "Belvedere Station" }, "geometry": { "type": "Point", "coordinates": [ -113.4328, 53.588349 ] } },
{ "type": "Feature", "properties": { "lrt_stop_number": 1518.0, "lrt_stop_description": "Quarters Stop" }, "geometry": { "type": "Point", "coordinates": [ -113.484008, 53.544426 ] } },
{ "type": "Feature", "properties": { "lrt_stop_number": 19352.0, "lrt_stop_description": "Central Station" }, "geometry": { "type": "Point", "coordinates": [ -113.493284, 53.540965 ] } },
{ "type": "Feature", "properties": { "lrt_stop_number": 23161.0, "lrt_stop_description": "University Station" }, "geometry": { "type": "Point", "coordinates": [ -113.522258, 53.52494 ] } },
{ "type": "Feature", "properties": { "lrt_stop_number": 11171.0, "lrt_stop_description": "MacEwan Station" }, "geometry": { "type": "Point", "coordinates": [ -113.499219, 53.547806 ] } },
{ "type": "Feature", "properties": { "lrt_stop_number": 18891.0, "lrt_stop_description": "Coliseum Station" }, "geometry": { "type": "Point", "coordinates": [ -113.458046, 53.570863 ] } },
{ "type": "Feature", "properties": { "lrt_stop_number": 3876.0, "lrt_stop_description": "Millbourne Woodvale Stop" }, "geometry": { "type": "Point", "coordinates": [ -113.438979, 53.474723 ] } },
{ "type": "Feature", "properties": { "lrt_stop_number": 18892.0, "lrt_stop_description": "Coliseum Station" }, "geometry": { "type": "Point", "coordinates": [ -113.458655, 53.570617 ] } },
{ "type": "Feature", "properties": { "lrt_stop_number": 19261.0, "lrt_stop_description": "Corona Station" }, "geometry": { "type": "Point", "coordinates": [ -113.504609, 53.540921 ] } },
{ "type": "Feature", "properties": { "lrt_stop_number": 49821.0, "lrt_stop_description": "Century Park Station" }, "geometry": { "type": "Point", "coordinates": [ -113.516303, 53.457805 ] } },
{ "type": "Feature", "properties": { "lrt_stop_number": 22992.0, "lrt_stop_description": "Muttart Stop" }, "geometry": { "type": "Point", "coordinates": [ -113.479103, 53.536628 ] } },
{ "type": "Feature", "properties": { "lrt_stop_number": 3899.0, "lrt_stop_description": "Mill Woods Stop" }, "geometry": { "type": "Point", "coordinates": [ -113.429725, 53.458447 ] } },
{ "type": "Feature", "properties": { "lrt_stop_number": 99811.0, "lrt_stop_description": "McKernan Belgravia Station" }, "geometry": { "type": "Point", "coordinates": [ -113.526163, 53.513445 ] } },
{ "type": "Feature", "properties": { "lrt_stop_number": 22991.0, "lrt_stop_description": "Strathearn Stop" }, "geometry": { "type": "Point", "coordinates": [ -113.463575, 53.531774 ] } }
]
}
