{
"type": "FeatureCollection",
"name": "recreation_facilities",
"crs": { "type": "name", "properties": { "name": "urn:ogc:def:crs:OGC:1.3:CRS84" } },
"features": [
{ "type": "Feature", "properties": { "category": "Sports and Recreation Facilities", "facility_type": "Staffed Sports Field", "facility_name": "Coronation Park", "address": "135 Street & 112 Avenue", "website": "https://www.edmonton.ca/activities_parks_recreation/coronation-park" }, "geometry": { "type": "Point", "coordinates": [ -113.556873, 53.561822 ] } },
{ "type": "Feature", "properties": { "category": "Parks and Playgrounds", "facility_type": "City Park", "facility_name": "Jackie Parker Park", "address": "4540 50 Street", "website": "https://www.edmonton.ca/jackieparkerpark" }, "geometry": { "type": "Point", "coordinates": [ -113.420398, 53.483714 ] } },
{ "type": "Feature", "properties": { "category": "Sports and Recreation Facilities", "facility_type": "Recreation Centre", "facility_name": "ACT Aquatic and Recreation Centre", "address": "2909 113 Avenue", "website": "https://www.edmonton.ca/act/" }, "geometry": { "type": "Point", "coordinates": [ -113.38677, 53.556213 ] } },
{ "type": "Feature", "properties": { "category": "Parks and Playgrounds", "facility_type": "River Valley Park", "facility_name": "Queen Elizabeth Park", "address": "10380 Queen Elizabeth Park Road", "website": "https://www.edmonton.ca/queenelizabethpark" }, "geometry": { "type": "Point", "coordinates": [ -113.498235, 53.524567 ] } },
{ "type": "Feature", "properties": { "category": "Sports and Recreation Facilities", "facility_type": "Recreation Centre", "facility_name": "Confederation Leisure Centre", "address": "11204 43 Avenue", "website": "https://www.edmonton.ca/confederation/" }, "geometry": { "type": "Point", "coordinates": [ -113.520227, 53.480487 ] } },
{ "type": "Feature", "properties": { "category": "Sports and Recreation Facilities", "facility_type": "Recreation Centre", "facility_name": "Jasper Place Leisure Centre", "address": "9200 163 Street", "website": "https://www.edmonton.ca/jasperplace/" }, "geometry": { "type": "Point", "coordinates": [ -113.60371, 53.52676 ] } },
{ "type": "Feature", "properties": { "category": "Sports and Recreation Facilities", "facility_type": "Tennis Court", "facility_name": "Glengarry Tennis Court", "address": "133 Avenue & 89 Street", "website": "https://www.edmonton.ca/tenniscourts" }, "geometry": { "type": "Point", "coordinates": [ -113.472963, 53.602561 ] } },
{ "type": "Feature", "properties": { "category": "Sports and Recreation Facilities", "facility_type": "Golf Course", "facility_name": "Riverside Golf Course", "address": "8630 Rowland Road", "website": "https://www.edmonton.ca/riversidegolf" }, "geometry": { "type": "Point", "coordinates": [ -113.465113, 53.549622 ] } },
{ "type": "Feature", "properties": { "category": "Sports and Recreation Facilities", "facility_type": "Arena", "facility_name": "Confederation Arena", "address": "11204 43 Avenue", "website": "https://www.edmonton.ca/arenas" }, "geometry": { "type": "Point", "coordinates": [ -113.520248, 53.479593 ] } },
{ "type": "Feature", "properties": { "category": "Sports and Recreation Facilities", "facility_type": "Arena", "facility_name": "Russ Barnes Arena", "address": "6725 121 Avenue", "website": "https://www.edmonton.ca/arenas" }, "geometry": { "type": "Point", "coordinates": [ -113.446079, 53.575066 ] } },
{ "type": "Feature", "properties": { "category": "Sports and Recreation Facilities", "facility_type": "Arena", "facility_name": "Crestwood Arena", "address": "9940 147 Street", "website": "https://www.edmonton.ca/arenas" }, "geometry": { "type": "Point", "coordinates": [ -113.575451, 53.538702 ] } },
{ "type": "Feature", "properties": { "category": "Sports and Recreation Facilities", "facility_type": "Tennis Court", "facility_name": "Strathcona Tennis Court", "address": "72 Avenue & 104 Street", "website": "https://www.edmonton.ca/tenniscourts" }, "geometry": { "type": "Point", "coordinates": [ -113.497686, 53.508516 ] } },
{ "type": "Feature", "properties": { "category": "Sports and Recreation Facilities", "facility_type": "Recreation Centre", "facility_name": "O'Leary Fitness and Leisure Centre", "address": "8804 132 Avenue", "website": "https://www.edmonton.ca/oleary/" }, "geometry": { "type": "Point", "coordinates": [ -113.476527, 53.592954 ] } },
{ "type": "Feature", "properties": { "category": "Sports and Recreation Facilities", "facility_type": "Arena", "facility_name": "Bill Hunter Arena", "address": "9200 163 Street", "website": "https://www.edmonton.ca/arenas" }, "geometry": { "type": "Point", "coordinates": [ -113.603764, 53.527149 ] } },
{ "type": "Feature", "properties": { "category": "Sports and Recreation Facilities", "facility_type": "Outdoor Pool", "facility_name": "Fred Broadstock Outdoor Pool", "address": "15720 105 Avenue", "website": "https://www.edmonton.ca/activities_parks_recreation/fred-broadstock-outdoor-pool" }, "geometry": { "type": "Point", "coordinates": [ -113.593126, 53.548999 ] } },
{ "type": "Feature", "properties": { "category": "Parks and Playgrounds", "facility_type": "River Valley Park", "facility_name": "Whitemud Park", "address": "13204 Fox Drive", "website": "https://www.edmonton.ca/whitemudpark" }, "geometry": { "type": "Point", "coordinates": [ -113.55525, 53.50345 ] } },
{ "type": "Feature", "properties": { "category": "Sports and Recreation Facilities", "facility_type": "Tennis Court", "facility_name": "Borden Tennis Court", "address": "112 Avenue & 74 Street", "website": "https://www.edmonton.ca/tenniscourts" }, "geometry": { "type": "Point", "coordinates": [ -113.452687, 53.563698 ] } },
{ "type": "Feature", "properties": { "category": "Parks and Playgrounds", "facility_type": "River Valley Park", "facility_name": "Capilano Park", "address": "109 A Avenue 50 Street", "website": "https://www.edmonton.ca/capilanopark" }, "geometry": { "type": "Point", "coordinates": [ -113.418625, 53.558626 ] } },
{ "type": "Feature", "properties": { "category": "Sports and Recreation Facilities", "facility_type": "Arena", "facility_name": "Glengarry Arena", "address": "13340 85 Street", "website": "https://www.edmonton.ca/arenas" }, "geometry": { "type": "Point", "coordinates": [ -113.472369, 53.594641 ] } },
{ "type": "Feature", "properties": { "category": "Parks and Playgrounds", "facility_type": "Snowshoeing", "facility_name": "Mill Woods Park", "address": "23 Avenue and 66 Street", "website": "https://www.edmonton.ca/snowshoeing" }, "geometry": { "type": "Point", "coordinates": [ -113.440922, 53.455456 ] } },
{ "type": "Feature", "properties": { "category": "Parks and Playgrounds", "facility_type": "River Valley Park", "facility_name": "Hermitage Park", "address": "2115 Hermitage Road", "website": "https://www.edmonton.ca/hermitagepark" }, "geometry": { "type": "Point", "coordinates": [ -113.374366, 53.591678 ] } },
{ "type": "Feature", "properties": { "category": "Sports and Recreation Facilities", "facility_type": "Tennis Court", "facility_name": "Forest Heights Tennis Court", "address": "84 Street & 103 Avenue", "website": "https://www.edmonton.ca/tenniscourts" }, "geometry": { "type": "Point", "coordinates": [ -113.460604, 53.550213 ] } },
{ "type": "Feature", "properties": { "category": "Parks and Playgrounds", "facility_type": "River Valley Park", "facility_name": "Rundle Park", "address": "2909 113 Avenue", "website": "https://www.edmonton.ca/rundlepark" }, "geometry": { "type": "Point", "coordinates": [ -113.386638, 53.556106 ] } },
{ "type": "Feature", "properties": { "category": "Sports and Recreation Facilities", "facility_type": "Recreation Centre", "facility_name": "Bonnie Doon Leisure Centre", "address": "8648 81 Street", "website": "https://www.edmonton.ca/bonniedoonlc/" }, "geometry": { "type": "Point", "coordinates": [ -113.453785, 53.523904 ] } },
{ "type": "Feature", "properties": { "category": "Sports and Recreation Facilities", "facility_type": "Staffed Sports Field", "facility_name": "Rollie Miles Athletic Park", "address": "10480 73 Avenue", "website": "https://www.edmonton.ca/rolliemilesathleticpark" }, "geometry": { "type": "Point", "coordinates": [ -113.499703, 53.510796 ] } },
{ "type": "Feature", "properties": { "category": "Sports and Recreation Facilities", "facility_type": "Recreation Centre", "facility_name": "Dr. Anne Anderson Community Centre", "address": "11810 35 Avenue SW", "website": "https://www.edmonton.ca/drannerec" }, "geometry": { "type": "Point", "coordinates": [ -113.545321, 53.401508 ] } },
{ "type": "Feature", "properties": { "category": "Sports and Recreation Facilities", "facility_type": "Tennis Court", "facility_name": "Bonnie Doon Tennis Court", "address": "81 Street & 88 Avenue", "website": "https://www.edmonton.ca/tenniscourts" }, "geometry": { "type": "Point", "coordinates": [ -113.45306, 53.523394 ] } },
{ "type": "Feature", "properties": { "category": "Parks and Playgrounds", "facility_type": "River Valley Park", "facility_name": "Kinsmen Park", "address": "9100 Walterdale Hill", "website": "https://www.edmonton.ca/kinsmenpark" }, "geometry": { "type": "Point", "coordinates": [ -113.508549, 53.52994 ] } },
{ "type": "Feature", "properties": { "category": "Parks and Playgrounds", "facility_type": "City Park", "facility_name": "John Fry Sport Park", "address": "9700 28 Avenue", "website": "https://www.edmonton.ca/johnfrysportspark" }, "geometry": { "type": "Point", "coordinates": [ -113.478644, 53.46104 ] } },
{ "type": "Feature", "properties": { "category": "Sports and Recreation Facilities", "facility_type": "Arena", "facility_name": "George S Hughes South Side Arena", "address": "10525 72 Avenue", "website": "https://www.edmonton.ca/arenas" }, "geometry": { "type": "Point", "coordinates": [ -113.501662, 53.508408 ] } },
{ "type": "Feature", "properties": { "category": "Sports and Recreation Facilities", "facility_type": "Arena", "facility_name": "Terwillegar Quad Arena", "address": "2051 Leger Road", "website": "https://www.edmonton.ca/arenas" }, "geometry": { "type": "Point", "coordinates": [ -113.582501, 53.458684 ] } },
{ "type": "Feature", "properties": { "category": "Sports and Recreation Facilities", "facility_type": "Staffed Sports Field", "facility_name": "Goldstick Park & Pavilion", "address": "4210 101 Avenue", "website": "https://www.edmonton.ca/activities_parks_recreation/goldstick-park-pavilion" }, "geometry": { "type": "Point", "coordinates": [ -113.402573, 53.545445 ] } },
{ "type": "Feature", "properties": { "category": "Sports and Recreation Facilities", "facility_type": "Arena", "facility_name": "Callingwood Twin Arena", "address": "17740 69 Avenue", "website": "https://www.edmonton.ca/arenas" }, "geometry": { "type": "Point", "coordinates": [ -113.627423, 53.505338 ] } },
{ "type": "Feature", "properties": { "category": "Sports and Recreation Facilities", "facility_type": "Arena", "facility_name": "Londonderry Arena", "address": "14520 66 Street", "website": "https://www.edmonton.ca/arenas" }, "geometry": { "type": "Point", "coordinates": [ -113.444441, 53.607403 ] } },
{ "type": "Feature", "properties": { "category": "Parks and Playgrounds", "facility_type": "River Valley Park", "facility_name": "Victoria Park", "address": "12030 River Valley Road", "website": "https://www.edmonton.ca/victoriapark" }, "geometry": { "type": "Point", "coordinates": [ -113.523328, 53.534302 ] } },
{ "type": "Feature", "properties": { "category": "Sports and Recreation Facilities", "facility_type": "Tennis Court", "facility_name": "Jasper Place Tennis Court", "address": "89 Avenue & 163 Street", "website": "https://www.edmonton.ca/tenniscourts" }, "geometry": { "type": "Point", "coordinates": [ -113.604468, 53.528197 ] } },
{ "type": "Feature", "properties": { "category": "Parks and Playgrounds", "facility_type": "City Park", "facility_name": "Borden Park", "address": "7507 Borden Park Road", "website": "https://www.edmonton.ca/bordenpark" }, "geometry": { "type": "Point", "coordinates": [ -113.452477, 53.563692 ] } },
{ "type": "Feature", "properties": { "category": "Sports and Recreation Facilities", "facility_type": "Recreation Centre", "facility_name": "Hardisty Fitness and Leisure Centre", "address": "10535 65 Street", "website": "https://www.edmonton.ca/hardisty/" }, "geometry": { "type": "Point", "coordinates": [ -113.430793, 53.549061 ] } },
{ "type": "Feature", "properties": { "category": "Sports and Recreation Facilities", "facility_type": "Tennis Court", "facility_name": "Londonderry Tennis Court", "address": "145 Avenue & 66 Street", "website": "https://www.edmonton.ca/tenniscourts" }, "geometry": { "type": "Point", "coordinates": [ -113.440026, 53.613265 ] } },
{ "type": "Feature", "properties": { "category": "Parks and Playgrounds", "facility_type": "River Valley Park", "facility_name": "Buena Vista Park", "address": "13210 Buena Vista Road", "website": "https://www.edmonton.ca/buenavistapark" }, "geometry": { "type": "Point", "coordinates": [ -113.547901, 53.51521 ] } },
{ "type": "Feature", "properties": { "category": "Parks and Playgrounds", "facility_type": "River Valley Park", "facility_name": "Jan Reimer Park", "address": "Between Terwillegar Park and Fort Edmonton Park", "website": "https://www.edmonton.ca/janreimerpark" }, "geometry": { "type": "Point", "coordinates": [ -113.596872, 53.486466 ] } },
{ "type": "Feature", "properties": { "category": "Sports and Recreation Facilities", "facility_type": "Recreation Centre", "facility_name": "Mill Woods Recreation Centre", "address": "7207 28 Avenue", "website": "https://www.edmonton.ca/millwoodshub/" }, "geometry": { "type": "Point", "coordinates": [ -113.444735, 53.457049 ] } },
{ "type": "Feature", "properties": { "category": "Sports and Recreation Facilities", "facility_type": "Arena", "facility_name": "Westwood Arena", "address": "12040 97 Street", "website": "https://www.edmonton.ca/arenas" }, "geometry": { "type": "Point", "coordinates": [ -113.492872, 53.57482 ] } },
{ "type": "Feature", "properties": { "category": "Sports and Recreation Facilities", "facility_type": "Staffed Sports Field", "facility_name": "Mill Woods Community Artificial Turf", "address": "6904 23 Avenue", "website": "https://www.edmonton.ca/activities_parks_recreation/mill-woods-community-artificial-turf" }, "geometry": { "type": "Point", "coordinates": [ -113.440212, 53.455264 ] } },
{ "type": "Feature", "properties": { "category": "Parks and Playgrounds", "facility_type": "Snowshoeing", "facility_name": "John Janzen Nature Centre", "address": "7000 143 Street", "website": "https://www.edmonton.ca/snowshoeing" }, "geometry": { "type": "Point", "coordinates": [ -113.572436, 53.50254 ] } },
{ "type": "Feature", "properties": { "category": "Sports and Recreation Facilities", "facility_type": "Recreation Centre", "facility_name": "Central Lions Recreation Centre", "address": "11113 113 Street", "website": "https://www.edmonton.ca/centrallions" }, "geometry": { "type": "Point", "coordinates": [ -113.514926, 53.5597 ] } },
{ "type": "Feature", "properties": { "category": "Sports and Recreation Facilities", "facility_type": "Arena", "facility_name": "Kinsmen Twin Arena", "address": "1979 111 Street", "website": "https://www.edmonton.ca/arenas" }, "geometry": { "type": "Point", "coordinates": [ -113.514068, 53.451147 ] } },
{ "type": "Feature", "properties": { "category": "Sports and Recreation Facilities", "facility_type": "Arena", "facility_name": "Michael Cameron Arena", "address": "10404 56 Street", "website": "https://www.edmonton.ca/arenas" }, "geometry": { "type": "Point", "coordinates": [ -113.423447, 53.546972 ] } },
{ "type": "Feature", "properties": { "category": "Sports and Recreation Facilities", "facility_type": "Outdoor Pool", "facility_name": "Borden Natural Swimming Pool", "address": "7615 Borden Park Road", "website": "https://www.edmonton.ca/activities_parks_recreation/borden-park-outdoor-pool" }, "geometry": { "type": "Point", "coordinates": [ -113.454664, 53.563831 ] } },
{ "type": "Feature", "properties": { "category": "Sports and Recreation Facilities", "facility_type": "Tennis Court", "facility_name": "Grand Trunk Tennis Court", "address": "130 Avenue & 112 Street", "website": "https://www.edmonton.ca/tenniscourts" }, "geometry": { "type": "Point", "coordinates": [ -113.512789, 53.598894 ] } },
{ "type": "Feature", "properties": { "category": "Sports and Recreation Facilities", "facility_type": "Recreation Centre", "facility_name": "Booster Juice Recreation Centre in Terwillegar", "address": "2051 Leger Road", "website": "https://www.edmonton.ca/terwillegarrec" }, "geometry": { "type": "Point", "coordinates": [ -113.582394, 53.458678 ] } },
{ "type": "Feature", "properties": { "category": "Sports and Recreation Facilities", "facility_type": "Arena", "facility_name": "Castledowns Twin Arena", "address": "11520 153 Avenue", "website": "https://www.edmonton.ca/arenas" }, "geometry": { "type": "Point", "coordinates": [ -113.520419, 53.615833 ] } },
{ "type": "Feature", "properties": { "category": "Sports and Recreation Facilities", "facility_type": "Golf Course", "facility_name": "Victoria Golf Course and Driving Range", "address": "12130 River Valley Road", "website": "https://www.edmonton.ca/victoriagolf" }, "geometry": { "type": "Point", "coordinates": [ -113.522972, 53.534317 ] } },
{ "type": "Feature", "properties": { "category": "Sports and Recreation Facilities", "facility_type": "Tennis Court", "facility_name": "Austin O'Brien Tennis Court", "address": "61 Street & 95 Avenue", "website": "https://www.edmonton.ca/tenniscourts" }, "geometry": { "type": "Point", "coordinates": [ -113.427645, 53.544909 ] } },
{ "type": "Feature", "properties": { "category": "Sports and Recreation Facilities", "facility_type": "Arena", "facility_name": "Downtown Community Arena", "address": "10245 105 Avenue", "website": "https://www.edmonton.ca/arenas" }, "geometry": { "type": "Point", "coordinates": [ -113.496293, 53.547602 ] } },
{ "type": "Feature", "properties": { "category": "Sports and Recreation Facilities", "facility_type": "Staffed Sports Field", "facility_name": "Jasper Place Bowl Artificial Turf", "address": "9210 163 Street", "website": "https://www.edmonton.ca/activities_parks_recreation/jasper-place-bowl-artificial-turf" }, "geometry": { "type": "Point", "coordinates": [ -113.606241, 53.527494 ] } },
{ "type": "Feature", "properties": { "category": "Sports and Recreation Facilities", "facility_type": "Recreation Centre", "facility_name": "Londonderry Fitness and Leisure Centre", "address": "14528 66 Street", "website": "https://www.edmonton.ca/londonderry/" }, "geometry": { "type": "Point", "coordinates": [ -113.44412, 53.607434 ] } },
{ "type": "Feature", "properties": { "category": "Sports and Recreation Facilities", "facility_type": "Tennis Court", "facility_name": "Queen Elizabeth Tennis Court", "address": "132 Avenue & 94 Street", "website": "https://www.edmonton.ca/tenniscourts" }, "geometry": { "type": "Point", "coordinates": [ -113.48737, 53.589727 ] } },
{ "type": "Feature", "properties": { "category": "Sports and Recreation Facilities", "facility_type": "Outdoor Pool", "facility_name": "Queen Elizabeth Outdoor Pool", "address": "9170 Walterdale Hill", "website": "https://www.edmonton.ca/queenelizabethpool" }, "geometry": { "type": "Point", "coordinates": [ -113.506848, 53.527405 ] } },
{ "type": "Feature", "properties": { "category": "Parks and Playgrounds", "facility_type": "River Valley Park", "facility_name": "Louise McKinney Park", "address": "9999 Grierson Hill Road", "website": "https://www.edmonton.ca/louisemckinneypark" }, "geometry": { "type": "Point", "coordinates": [ -113.480337, 53.542046 ] } },
{ "type": "Feature", "properties": { "category": "Parks and Playgrounds", "facility_type": "River Valley Park", "facility_name": "Gallagher Park", "address": "9505 96 Avenue", "website": "https://www.edmonton.ca/gallagherpark" }, "geometry": { "type": "Point", "coordinates": [ -113.47264, 53.534349 ] } },
{ "type": "Feature", "properties": { "category": "Specialty (Programming / Rental) Facility", "facility_type": "Arts Booking Facility", "facility_name": "The Orange Hub", "address": "10045 156 Street", "website": "https://www.edmonton.ca/theorangehub" }, "geometry": { "type": "Point", "coordinates": [ -113.589294, 53.539982 ] } },
{ "type": "Feature", "properties": { "category": "Sports and Recreation Facilities", "facility_type": "Recreation Centre", "facility_name": "Eastglen Leisure Centre", "address": "11410 68 Street", "website": "https://www.edmonton.ca/eastglen/" }, "geometry": { "type": "Point", "coordinates": [ -113.444866, 53.567264 ] } },
{ "type": "Feature", "properties": { "category": "Sports and Recreation Facilities", "facility_type": "Arena", "facility_name": "The Meadows Twin Arena", "address": "2704 17 Street", "website": "https://www.edmonton.ca/arenas" }, "geometry": { "type": "Point", "coordinates": [ -113.371352, 53.458345 ] } },
{ "type": "Feature", "properties": { "category": "Parks and Playgrounds", "facility_type": "City Park", "facility_name": "Castle Downs Park", "address": "11520 153 Avenue", "website": "https://www.edmonton.ca/castledownspark" }, "geometry": { "type": "Point", "coordinates": [ -113.522071, 53.617357 ] } },
{ "type": "Feature", "properties": { "category": "Parks and Playgrounds", "facility_type": "City Park", "facility_name": "Mill Woods Sport Park", "address": "2730 66 Street", "website": "https://www.edmonton.ca/millwoodspark" }, "geometry": { "type": "Point", "coordinates": [ -113.440836, 53.455392 ] } },
{ "type": "Feature", "properties": { "category": "Parks and Playgrounds", "facility_type": "River Valley Park", "facility_name": "Terwillegar Park", "address": "10 Rabbit Hill Road", "website": "https://www.edmonton.ca/terwillegarpark" }, "geometry": { "type": "Point", "coordinates": [ -113.569757, 53.464258 ] } },
{ "type": "Feature", "properties": { "category": "Sports and Recreation Facilities", "facility_type": "Tennis Court", "facility_name": "Malcolm Tweddle Tennis Court", "address": "76 Street & 38 Avenue", "website": "https://www.edmonton.ca/tenniscourts" }, "geometry": { "type": "Point", "coordinates": [ -113.454598, 53.474575 ] } },
{ "type": "Feature", "properties": { "category": "Sports and Recreation Facilities", "facility_type": "Recreation Centre", "facility_name": "Mill Woods Seniors and Multicultural Centre", "address": "2610 Hewes Way", "website": "https://www.edmonton.ca/millwoodscentre" }, "geometry": { "type": "Point", "coordinates": [ -113.427325, 53.456721 ] } },
{ "type": "Feature", "properties": { "category": "Sports and Recreation Facilities", "facility_type": "Recreation Centre", "facility_name": "Clareview Community Recreation Centre", "address": "3804 139 Avenue", "website": "https://www.edmonton.ca/clareviewrec/" }, "geometry": { "type": "Point", "coordinates": [ -113.403323, 53.60235 ] } },
{ "type": "Feature", "properties": { "category": "Parks and Playgrounds", "facility_type": "River Valley Park", "facility_name": "Emily Murphy Park", "address": "11904 Emily Murphy Park Road", "website": "https://www.edmonton.ca/emilymurphypark" }, "geometry": { "type": "Point", "coordinates": [ -113.537195, 53.533589 ] } },
{ "type": "Feature", "properties": { "category": "Sports and Recreation Facilities", "facility_type": "Arena", "facility_name": "Mill Woods Twin Arena", "address": "7207 28 Avenue", "website": "https://www.edmonton.ca/arenas" }, "geometry": { "type": "Point", "coordinates": [ -113.444855, 53.45785 ] } },
{ "type": "Feature", "properties": { "category": "Sports and Recreation Facilities", "facility_type": "Outdoor Pool", "facility_name": "Wîhkwêntôwin (Oliver) Outdoor Pool", "address": "10315 119 Street", "website": "https://www.edmonton.ca/wihkwentowinpool" }, "geometry": { "type": "Point", "coordinates": [ -113.526638, 53.545272 ] } },
{ "type": "Feature", "properties": { "category": "Sports and Recreation Facilities", "facility_type": "Tennis Court", "facility_name": "Coronation Tennis Court", "address": "111 Avenue & 135 Street", "website": "https://www.edmonton.ca/tenniscourts" }, "geometry": { "type": "Point", "coordinates": [ -113.559174, 53.561121 ] } },
{ "type": "Feature", "properties": { "category": "Sports and Recreation Facilities", "facility_type": "Recreation Centre", "facility_name": "The Meadows Community Recreation Centre", "address": "2704 17 Street", "website": "https://www.edmonton.ca/meadowsrec" }, "geometry": { "type": "Point", "coordinates": [ -113.371257, 53.457924 ] } },
{ "type": "Feature", "properties": { "category": "Parks and Playgrounds", "facility_type": "River Valley Park", "facility_name": "Northeast River Valley Park", "address": "903 153 Avenue NE", "website": "https://www.edmonton.ca/nerivervalleypark" }, "geometry": { "type": "Point", "coordinates": [ -113.331966, 53.613506 ] } },
{ "type": "Feature", "properties": { "category": "Sports and Recreation Facilities", "facility_type": "Tennis Court", "facility_name": "Confederation Tennis Court", "address": "43 Avenue & 114 Street", "website": "https://www.edmonton.ca/tenniscourts" }, "geometry": { "type": "Point", "coordinates": [ -113.52461, 53.479448 ] } },
{ "type": "Feature", "properties": { "category": "Sports and Recreation Facilities", "facility_type": "Staffed Sports Field", "facility_name": "Clareview Field Artificial Turf", "address": "3804 139 Avenue", "website": "https://www.edmonton.ca/activities_parks_recreation/clareview-field-artificial-turf" }, "geometry": { "type": "Point", "coordinates": [ -113.402847, 53.6021 ] } },
{ "type": "Feature", "properties": { "category": "Sports and Recreation Facilities", "facility_type": "Recreation Centre", "facility_name": "St. Francis Xavier Sports Centre", "address": "9240 163 Street", "website": "https://www.edmonton.ca/stfx" }, "geometry": { "type": "Point", "coordinates": [ -113.603268, 53.528945 ] } },
{ "type": "Feature", "properties": { "category": "Sports and Recreation Facilities", "facility_type": "Arena", "facility_name": "Kenilworth Arena", "address": "8311 68A Street", "website": "https://www.edmonton.ca/arenas" }, "geometry": { "type": "Point", "coordinates": [ -113.431592, 53.519267 ] } },
{ "type": "Feature", "properties": { "category": "Sports and Recreation Facilities", "facility_type": "Recreation Centre", "facility_name": "Kinsmen Sports Centre", "address": "9100 Walterdale Hill", "website": "https://www.edmonton.ca/kinsmen" }, "geometry": { "type": "Point", "coordinates": [ -113.50721, 53.526427 ] } },
{ "type": "Feature", "properties": { "category": "Sports and Recreation Facilities", "facility_type": "Staffed Sports Field", "facility_name": "John Fry Park", "address": "9700 28 Avenue", "website": "https://www.edmonton.ca/activities_parks_recreation/john-fry-park" }, "geometry": { "type": "Point", "coordinates": [ -113.478655, 53.461014 ] } },
{ "type": "Feature", "properties": { "category": "Sports and Recreation Facilities", "facility_type": "Golf Course", "facility_name": "Rundle Park Golf Course", "address": "2902 118 Avenue", "website": "https://www.edmonton.ca/rundlegolf" }, "geometry": { "type": "Point", "coordinates": [ -113.378655, 53.570194 ] } },
{ "type": "Feature", "properties": { "category": "Parks and Playgrounds", "facility_type": "City Park", "facility_name": "Callingwood Park", "address": "17740 69 Avenue", "website": "https://www.edmonton.ca/callingwoodpark" }, "geometry": { "type": "Point", "coordinates": [ -113.626281, 53.507048 ] } },
{ "type": "Feature", "properties": { "category": "Parks and Playgrounds", "facility_type": "River Valley Park", "facility_name": "Mill Creek Ravine Park", "address": "96 Street and 76 Avenue", "website": "https://www.edmonton.ca/millcreekravine" }, "geometry": { "type": "Point", "coordinates": [ -113.459297, 53.504779 ] } },
{ "type": "Feature", "properties": { "category": "Parks and Playgrounds", "facility_type": "Snowshoeing", "facility_name": "Fort Edmonton Park", "address": "7000 143 Street", "website": "https://www.edmonton.ca/snowshoeing" }, "geometry": { "type": "Point", "coordinates": [ -113.573413, 53.503544 ] } },
{ "type": "Feature", "properties": { "category": "Sports and Recreation Facilities", "facility_type": "Arena", "facility_name": "Tipton Arena", "address": "10849 81 Avenue", "website": "https://www.edmonton.ca/arenas" }, "geometry": { "type": "Point", "coordinates": [ -113.513708, 53.521599 ] } },
{ "type": "Feature", "properties": { "category": "Sports and Recreation Facilities", "facility_type": "Arena", "facility_name": "Donnan Arena", "address": "9105 80 Avenue", "website": "https://www.edmonton.ca/arenas" }, "geometry": { "type": "Point", "coordinates": [ -113.468336, 53.515764 ] } },
{ "type": "Feature", "properties": { "category": "Sports and Recreation Facilities", "facility_type": "Tennis Court", "facility_name": "Victoria Tennis Court", "address": "108 Avenue & 103 Street", "website": "https://www.edmonton.ca/tenniscourts" }, "geometry": { "type": "Point", "coordinates": [ -113.497255, 53.554657 ] } },
{ "type": "Feature", "properties": { "category": "Sports and Recreation Facilities", "facility_type": "Arena", "facility_name": "Clareview Arena", "address": "3804 139 Avenue", "website": "https://www.edmonton.ca/arenas" }, "geometry": { "type": "Point", "coordinates": [ -113.403438, 53.602331 ] } },
{ "type": "Feature", "properties": { "category": "Sports and Recreation Facilities", "facility_type": "Recreation Centre", "facility_name": "Grand Trunk Fitness and Leisure Centre", "address": "13025 112 Street", "website": "https://www.edmonton.ca/grandtrunk/" }, "geometry": { "type": "Point", "coordinates": [ -113.511877, 53.589827 ] } },
{ "type": "Feature", "properties": { "category": "Specialty (Programming / Rental) Facility", "facility_type": "Arts Program Facility", "facility_name": "City Arts Centre", "address": "10942 83 Avenue", "website": "https://www.edmonton.ca/cityarts" }, "geometry": { "type": "Point", "coordinates": [ -113.513852, 53.519811 ] } },
{ "type": "Feature", "properties": { "category": "Sports and Recreation Facilities", "facility_type": "Tennis Court", "facility_name": "Rundle Park Tennis Court", "address": "106 Avenue & 26 Street", "website": "https://www.edmonton.ca/tenniscourts" }, "geometry": { "type": "Point", "coordinates": [ -113.384386, 53.565875 ] } },
{ "type": "Feature", "properties": { "category": "Parks and Playgrounds", "facility_type": "River Valley Park", "facility_name": "Gold Bar Park", "address": "10955 50 Street", "website": "https://www.edmonton.ca/goldbarpark" }, "geometry": { "type": "Point", "coordinates": [ -113.407305, 53.558086 ] } },
{ "type": "Feature", "properties": { "category": "Sports and Recreation Facilities", "facility_type": "Arena", "facility_name": "Oliver Arena", "address": "10335 119 Street", "website": "https://www.edmonton.ca/arenas" }, "geometry": { "type": "Point", "coordinates": [ -113.52657, 53.545771 ] } },
{ "type": "Feature", "properties": { "category": "Sports and Recreation Facilities", "facility_type": "Arena", "facility_name": "Grand Trunk Arena", "address": "13025 112 Street", "website": "https://www.edmonton.ca/arenas" }, "geometry": { "type": "Point", "coordinates": [ -113.51187, 53.589845 ] } },
{ "type": "Feature", "properties": { "category": "Sports and Recreation Facilities", "facility_type": "Tennis Court", "facility_name": "Kinsmen Tennis Court", "address": "9100 Walterdale Road", "website": "https://www.edmonton.ca/tenniscourts" }, "geometry": { "type": "Point", "coordinates": [ -113.505689, 53.526202 ] } },
{ "type": "Feature", "properties": { "category": "Sports and Recreation Facilities", "facility_type": "Recreation Centre", "facility_name": "Northgate Lions Seniors Recreation Centre", "address": "7524 139 Avenue", "website": "https://www.edmonton.ca/northgateseniors" }, "geometry": { "type": "Point", "coordinates": [ -113.457957, 53.6026 ] } },
{ "type": "Feature", "properties": { "category": "Parks and Playgrounds", "facility_type": "Snowshoeing", "facility_name": "Rundle Park", "address": "2913 113 Avenue", "website": "https://www.edmonton.ca/snowshoeing" }, "geometry": { "type": "Point", "coordinates": [ -113.388314, 53.555087 ] } },
{ "type": "Feature", "properties": { "category": "Sports and Recreation Facilities", "facility_type": "Recreation Centre", "facility_name": "Commonwealth Recreation Centre", "address": "11000 Stadium Road", "website": "https://www.edmonton.ca/commonwealthrec" }, "geometry": { "type": "Point", "coordinates": [ -113.476277, 53.557787 ] } },
{ "type": "Feature", "properties": { "category": "Parks and Playgrounds", "facility_type": "River Valley Park", "facility_name": "Dawson Park", "address": "10298 89 Street", "website": "https://www.edmonton.ca/dawsonpark" }, "geometry": { "type": "Point", "coordinates": [ -113.470918, 53.551877 ] } },
{ "type": "Feature", "properties": { "category": "Parks and Playgrounds", "facility_type": "River Valley Park", "facility_name": "William Hawrelak Park", "address": "9330 Groat Road", "website": "https://www.edmonton.ca/hawrelakpark" }, "geometry": { "type": "Point", "coordinates": [ -113.547567, 53.527208 ] } },
{ "type": "Feature", "properties": { "category": "Sports and Recreation Facilities", "facility_type": "Outdoor Pool", "facility_name": "Mill Creek Outdoor Pool", "address": "9555 84 Avenue", "website": "https://www.edmonton.ca/millcreekpool" }, "geometry": { "type": "Point", "coordinates": [ -113.473986, 53.519776 ] } },
{ "type": "Feature", "properties": { "category": "Sports and Recreation Facilities", "facility_type": "Recreation Centre", "facility_name": "Coronation Sports and Recreation Centre", "address": "11160 135 Street", "website": "https://www.edmonton.ca/coronationreccentre" }, "geometry": { "type": "Point", "coordinates": [ -113.560641, 53.561173 ] } },
{ "type": "Feature", "properties": { "category": "Sports and Recreation Facilities", "facility_type": "Staffed Sports Field", "facility_name": "Clarke Park Artificial Turf", "address": "11000 Stadium Road", "website": "https://www.edmonton.ca/activities_parks_recreation/clarke-park-artificial-turf" }, "geometry": { "type": "Point", "coordinates": [ -113.47658, 53.558468 ] } },
{ "type": "Feature", "properties": { "category": "Sports and Recreation Facilities", "facility_type": "Tennis Court", "facility_name": "Mill Woods Tennis Court", "address": "28 Avenue & 72 Street", "website": "https://www.edmonton.ca/tenniscourts" }, "geometry": { "type": "Point", "coordinates": [ -113.444037, 53.456095 ] } },
{ "type": "Feature", "properties": { "category": "Parks and Playgrounds", "facility_type": "River Valley Park", "facility_name": "Sir Wilfrid Laurier Park", "address": "13221 Buena Vista Road", "website": "https://www.edmonton.ca//wilfridlaurierpark" }, "geometry": { "type": "Point", "coordinates": [ -113.55066, 53.510029 ] } },
{ "type": "Feature", "properties": { "category": "Parks and Playgrounds", "facility_type": "River Valley Park", "facility_name": "Government House Park", "address": "9938 Groat Road", "website": "https://www.edmonton.ca/governmenthousepark" }, "geometry": { "type": "Point", "coordinates": [ -113.540101, 53.538986 ] } },
{ "type": "Feature", "properties": { "category": "Parks and Playgrounds", "facility_type": "City Park", "facility_name": "Coronation Park", "address": "11425 142 Street", "website": "https://www.edmonton.ca/coronationpark" }, "geometry": { "type": "Point", "coordinates": [ -113.561111, 53.562029 ] } }
]
}
