{
"type": "FeatureCollection",
"name": "spray_parks",
"crs": { "type": "name", "properties": { "name": "urn:ogc:def:crs:OGC:1.3:CRS84" } },
"features": [
{ "type": "Feature", "properties": { "id": 699.0, "name": "High Park Community Spray Deck", "address": "11032 - 154 STREET NW T5P2K1", "type": "Spray Deck", "surface_type": "Concrete", "accessibility": "Wheelchair Accessible", "neighbourhood_id": 4200.0, "neighbourhood_name": "HIGH PARK" }, "geometry": { "type": "Point", "coordinates": [ -113.588249, 53.557266 ] } },
{ "type": "Feature", "properties": { "id": 3653.0, "name": "Rosenthal Spray Deck", "address": "1070 Rosenthal Blvd NW", "type": "Spray Deck", "surface_type": "Concrete", "accessibility": "Wheelchair Accessible", "neighbourhood_id": 4750.0, "neighbourhood_name": "ROSENTHAL" }, "geometry": { "type": "Point", "coordinates": [ -113.698884, 53.517152 ] } },
{ "type": "Feature", "properties": { "id": 189.0, "name": "Kensington Spray Deck", "address": "12130 - 134B AVENUE NW", "type": "Spray Deck", "surface_type": "Pour In Place Rubber", "accessibility": "Wheelchair Accessible", "neighbourhood_id": 3250.0, "neighbourhood_name": "KENSINGTON" }, "geometry": { "type": "Point", "coordinates": [ -113.531118, 53.595821 ] } },
{ "type": "Feature", "properties": { "id": 726.0, "name": "Hazeldean Spray Deck", "address": "9630 - 66 AVENUE NW T6E4W9", "type": "Spray Deck", "surface_type": "Pour In Place Rubber", "accessibility": "Wheelchair Accessible", "neighbourhood_id": 6290.0, "neighbourhood_name": "HAZELDEAN" }, "geometry": { "type": "Point", "coordinates": [ -113.477468, 53.503199 ] } },
{ "type": "Feature", "properties": { "id": 3000.0, "name": "Kenilworth Spray Deck", "address": "7104 - 87 AVENUE NW T6B3C2", "type": "Spray Deck", "surface_type": "Pour In Place Rubber", "accessibility": "Wheelchair Accessible", "neighbourhood_id": 6350.0, "neighbourhood_name": "KENILWORTH" }, "geometry": { "type": "Point", "coordinates": [ -113.437328, 53.522562 ] } },
{ "type": "Feature", "properties": { "id": 2340.0, "name": "Ellingson Spray Deck", "address": "6510 - 111 STREET NW T6H5W2", "type": "Spray Deck", "surface_type": "Pour in Place Rubber", "accessibility": "Wheelchair Accessible", "neighbourhood_id": 5310.0, "neighbourhood_name": "PARKALLEN" }, "geometry": { "type": "Point", "coordinates": [ -113.517476, 53.503112 ] } },
{ "type": "Feature", "properties": { "id": 2300.0, "name": "McKernan Spray Deck", "address": "7535 - 112 STREET NW", "type": "Spray Deck", "surface_type": "Pour In Place Rubber", "accessibility": "Wheelchair Accessible", "neighbourhood_id": 5290.0, "neighbourhood_name": "MCKERNAN" }, "geometry": { "type": "Point", "coordinates": [ -113.519265, 53.511287 ] } },
{ "type": "Feature", "properties": { "id": 3647.0, "name": "Spruce Avenue Spray Deck", "address": "11424 - 102 Street NW", "type": "Spray Deck", "surface_type": "Concrete", "accessibility": "Wheelchair Accessible", "neighbourhood_id": 1230.0, "neighbourhood_name": "SPRUCE AVENUE" }, "geometry": { "type": "Point", "coordinates": [ -113.49771, 53.565373 ] } },
{ "type": "Feature", "properties": { "id": 2762.0, "name": "Riverdale Spray Deck", "address": "9231 - 100 AVENUE NW T5H0A4", "type": "Spray Deck", "surface_type": "Concrete", "accessibility": "Wheelchair Accessible", "neighbourhood_id": 1210.0, "neighbourhood_name": "RIVERDALE" }, "geometry": { "type": "Point", "coordinates": [ -113.473077, 53.541522 ] } },
{ "type": "Feature", "properties": { "id": 630.0, "name": "Greenfield Spray Deck", "address": "3755 - 114 STREET NW", "type": "Spray Deck", "surface_type": "Concrete", "accessibility": "Wheelchair Accessible", "neighbourhood_id": 5220.0, "neighbourhood_name": "GREENFIELD" }, "geometry": { "type": "Point", "coordinates": [ -113.525639, 53.473494 ] } },
{ "type": "Feature", "properties": { "id": 732.0, "name": "Fulton Place Spray Deck", "address": "Fulton Drive and 62 Street NW", "type": "Spray Deck", "surface_type": "Pour In Place Rubber", "accessibility": "Wheelchair Accessible", "neighbourhood_id": 6240.0, "neighbourhood_name": "FULTON PLACE" }, "geometry": { "type": "Point", "coordinates": [ -113.425707, 53.546258 ] } },
{ "type": "Feature", "properties": { "id": 3651.0, "name": "West Meadowlark Community Spray Deck", "address": "9311 165 Street NW", "type": "Spray Deck", "surface_type": "Concrete", "accessibility": "Wheelchair Accessible", "neighbourhood_id": 4590.0, "neighbourhood_name": "WEST MEADOWLARK PARK" }, "geometry": { "type": "Point", "coordinates": [ -113.606913, 53.529445 ] } },
{ "type": "Feature", "properties": { "id": 1060.0, "name": "Mill Woods Spray Park", "address": "2730 - 66 STREET NW", "type": "Spray Park", "surface_type": "Concrete", "accessibility": "Wheelchair Accessible", "neighbourhood_id": 6510.0, "neighbourhood_name": "MILL WOODS PARK" }, "geometry": { "type": "Point", "coordinates": [ -113.436092, 53.455084 ] } },
{ "type": "Feature", "properties": { "id": 2784.0, "name": "Dovercourt Community Spray Deck", "address": "12320 - DOVERCOURT AVENUE NW", "type": "Spray Deck", "surface_type": "Pour In Place Rubber", "accessibility": "Wheelchair Accessible", "neighbourhood_id": 3170.0, "neighbourhood_name": "DOVERCOURT" }, "geometry": { "type": "Point", "coordinates": [ -113.559403, 53.575897 ] } },
{ "type": "Feature", "properties": { "id": 772.0, "name": "Montrose Spray Deck", "address": "5955 - 120 AVENUE NW", "type": "Spray Deck", "surface_type": "Concrete", "accessibility": "Wheelchair Accessible", "neighbourhood_id": 2550.0, "neighbourhood_name": "MONTROSE" }, "geometry": { "type": "Point", "coordinates": [ -113.433079, 53.572916 ] } },
{ "type": "Feature", "properties": { "id": 3672.0, "name": "Capilano School Spray Deck", "address": "10720 54 Street NW", "type": "Spray Deck", "surface_type": "Pour In Place Rubber", "accessibility": "Wheelchair Accessible", "neighbourhood_id": 6061.0, "neighbourhood_name": "CAPILANO" }, "geometry": { "type": "Point", "coordinates": [ -113.42225, 53.555753 ] } },
{ "type": "Feature", "properties": { "id": 3500.0, "name": "Callingwood Spray Park", "address": "17505 76 Avenue NW", "type": "Spray Park", "surface_type": "Concrete", "accessibility": "Wheelchair Accessible", "neighbourhood_id": 4070.0, "neighbourhood_name": "CALLINGWOOD NORTH" }, "geometry": { "type": "Point", "coordinates": [ -113.627458, 53.506285 ] } },
{ "type": "Feature", "properties": { "id": 635.0, "name": "Aspen Spray Deck", "address": "12015 39A AVENUE NW T6J6P7", "type": "Spray Deck", "surface_type": "Pour In Place Rubber", "accessibility": "Wheelchair Accessible", "neighbourhood_id": 5020.0, "neighbourhood_name": "ASPEN GARDENS" }, "geometry": { "type": "Point", "coordinates": [ -113.542506, 53.474887 ] } },
{ "type": "Feature", "properties": { "id": 3480.0, "name": "Hudson Spray Deck", "address": "13625 - CUMBERLAND ROAD NW", "type": "Spray Deck", "surface_type": "Pour In Place Rubber", "accessibility": "Wheelchair Accessible", "neighbourhood_id": 3480.0, "neighbourhood_name": "HUDSON" }, "geometry": { "type": "Point", "coordinates": [ -113.556523, 53.60776 ] } },
{ "type": "Feature", "properties": { "id": 3726.0, "name": "Poplar Park Spray Park", "address": "16410 82 Street NW", "type": "Spray Park", "surface_type": "Concrete", "accessibility": "Wheelchair Accessible", "neighbourhood_id": 2050.0, "neighbourhood_name": "BELLE RIVE" }, "geometry": { "type": "Point", "coordinates": [ -113.473161, 53.626446 ] } },
{ "type": "Feature", "properties": { "id": 3819.0, "name": "Glengarry Spray Park", "address": "134 Avenue NW and 89 Street NW", "type": "Spray Park", "surface_type": "Concrete", "accessibility": "Wheelchair Accessible", "neighbourhood_id": 2290.0, "neighbourhood_name": "GLENGARRY" }, "geometry": { "type": "Point", "coordinates": [ -113.475678, 53.595752 ] } },
{ "type": "Feature", "properties": { "id": 3821.0, "name": "Inglewood Community Spray Deck", "address": "12525 116 Ave NW", "type": "Spray Deck", "surface_type": "Concrete", "accessibility": "Wheelchair Accessible", "neighbourhood_id": 3240.0, "neighbourhood_name": "INGLEWOOD" }, "geometry": { "type": "Point", "coordinates": [ -113.538972, 53.566354 ] } },
{ "type": "Feature", "properties": { "id": 682.0, "name": "Westglen Park Spray Deck", "address": "12840 109 Avenue NW", "type": "Spray Deck", "surface_type": "Concrete", "accessibility": "Wheelchair Accessible", "neighbourhood_id": 3440.0, "neighbourhood_name": "WESTMOUNT" }, "geometry": { "type": "Point", "coordinates": [ -113.544166, 53.55501 ] } },
{ "type": "Feature", "properties": { "id": 767.0, "name": "Killarney Spray Deck", "address": "8720 130A Avenue NW", "type": "Spray Deck", "surface_type": "Pour In Place Rubber", "accessibility": "Wheelchair Accessible", "neighbourhood_id": 2420.0, "neighbourhood_name": "KILLARNEY" }, "geometry": { "type": "Point", "coordinates": [ -113.475208, 53.590687 ] } },
{ "type": "Feature", "properties": { "id": 680.0, "name": "Rosslyn Spray Deck", "address": "11015 134 Avenue NW", "type": "Spray Deck", "surface_type": "Concrete", "accessibility": "Wheelchair Accessible", "neighbourhood_id": 3390.0, "neighbourhood_name": "ROSSLYN" }, "geometry": { "type": "Point", "coordinates": [ -113.511775, 53.594261 ] } },
{ "type": "Feature", "properties": { "id": 3828.0, "name": "Schonsee Spray Deck", "address": "5470 Schonsee Dr NW", "type": "Spray Deck", "surface_type": "Concrete", "accessibility": "Wheelchair Accessible", "neighbourhood_id": 2700.0, "neighbourhood_name": "SCHONSEE" }, "geometry": { "type": "Point", "coordinates": [ -113.459276, 53.632952 ] } },
{ "type": "Feature", "properties": { "id": 634.0, "name": "Strathcona Spray and Play Spray Deck", "address": "10139 - 87 AVENUE NW T6E2P3", "type": "Spray Deck", "surface_type": "Pour In Place Rubber", "accessibility": "Wheelchair Accessible", "neighbourhood_id": 5480.0, "neighbourhood_name": "STRATHCONA" }, "geometry": { "type": "Point", "coordinates": [ -113.492632, 53.52242 ] } },
{ "type": "Feature", "properties": { "id": 778.0, "name": "Queen Mary Spray Deck", "address": "10844 117 STREET NW T5H3N5", "type": "Spray Deck", "surface_type": "Concrete", "accessibility": "Wheelchair Accessible", "neighbourhood_id": 1180.0, "neighbourhood_name": "QUEEN MARY PARK" }, "geometry": { "type": "Point", "coordinates": [ -113.524416, 53.554271 ] } },
{ "type": "Feature", "properties": { "id": 2741.0, "name": "Ottewell Spray Deck", "address": "5920 - 93A AVENUE NW T6B0X2", "type": "Spray Deck", "surface_type": "Pour In Place Rubber", "accessibility": "Wheelchair Accessible", "neighbourhood_id": 6550.0, "neighbourhood_name": "OTTEWELL" }, "geometry": { "type": "Point", "coordinates": [ -113.424446, 53.530716 ] } },
{ "type": "Feature", "properties": { "id": 3710.0, "name": "South Terwillegar Spray Deck", "address": "7170 South Terwillegar Dr", "type": "Spray Deck", "surface_type": "Concrete", "accessibility": "Wheelchair Accessible", "neighbourhood_id": 5642.0, "neighbourhood_name": "SOUTH TERWILLEGAR" }, "geometry": { "type": "Point", "coordinates": [ -113.580091, 53.43996 ] } },
{ "type": "Feature", "properties": { "id": 679.0, "name": "Sherbrooke Community Spray Deck", "address": "12956 - 122 AVENUE NW", "type": "Spray Deck", "surface_type": "Concrete", "accessibility": "Wheelchair Accessible", "neighbourhood_id": 3410.0, "neighbourhood_name": "SHERBROOKE" }, "geometry": { "type": "Point", "coordinates": [ -113.548092, 53.575212 ] } },
{ "type": "Feature", "properties": { "id": 2783.0, "name": "Grovenor Community Spray Deck", "address": "14325 - 104 AVENUE NW T5N0W9", "type": "Spray Deck", "surface_type": "Concrete", "accessibility": "Wheelchair Accessible", "neighbourhood_id": 3210.0, "neighbourhood_name": "GROVENOR" }, "geometry": { "type": "Point", "coordinates": [ -113.568049, 53.545817 ] } },
{ "type": "Feature", "properties": { "id": 2325.0, "name": "Avonmore Spray Deck", "address": "7316 - 78 STREET NW", "type": "Spray Deck", "surface_type": "Concrete", "accessibility": "Wheelchair Accessible", "neighbourhood_id": 6020.0, "neighbourhood_name": "AVONMORE" }, "geometry": { "type": "Point", "coordinates": [ -113.448411, 53.51019 ] } },
{ "type": "Feature", "properties": { "id": 749.0, "name": "Beverly Jubilee Spray Deck", "address": "4203 120 Avenue NW", "type": "Spray Deck", "surface_type": "Concrete", "accessibility": "Wheelchair Accessible", "neighbourhood_id": 2040.0, "neighbourhood_name": "BEACON HEIGHTS" }, "geometry": { "type": "Point", "coordinates": [ -113.407139, 53.57449 ] } },
{ "type": "Feature", "properties": { "id": 3673.0, "name": "Monsignor Walter Fitzgerald Spray Deck", "address": "7146 - 180 Street NW", "type": "Spray Deck", "surface_type": "Concrete", "accessibility": "Wheelchair Accessible", "neighbourhood_id": 4270.0, "neighbourhood_name": "LYMBURN" }, "geometry": { "type": "Point", "coordinates": [ -113.635276, 53.505841 ] } },
{ "type": "Feature", "properties": { "id": 2781.0, "name": "Eastwood Spray Deck", "address": "11803 - 86 STREET NW T5B3J9", "type": "Spray Deck", "surface_type": "Concrete", "accessibility": "Wheelchair Accessible", "neighbourhood_id": 1100.0, "neighbourhood_name": "EASTWOOD" }, "geometry": { "type": "Point", "coordinates": [ -113.472199, 53.570736 ] } },
{ "type": "Feature", "properties": { "id": 2326.0, "name": "Bonnie Doon Spray Deck", "address": "9217 - 94 STREET NW", "type": "Spray Deck", "surface_type": "Pour In Place Rubber", "accessibility": "Wheelchair Accessible", "neighbourhood_id": 6040.0, "neighbourhood_name": "BONNIE DOON" }, "geometry": { "type": "Point", "coordinates": [ -113.470456, 53.527647 ] } },
{ "type": "Feature", "properties": { "id": 746.0, "name": "Silver Heights Spray Deck", "address": "8777 - 96 AVENUE NW T6C2B1", "type": "Spray Deck", "surface_type": "Pour In Place Rubber", "accessibility": "Wheelchair Accessible", "neighbourhood_id": 6710.0, "neighbourhood_name": "STRATHEARN" }, "geometry": { "type": "Point", "coordinates": [ -113.464809, 53.532803 ] } },
{ "type": "Feature", "properties": { "id": 3646.0, "name": "Tipton Spray Deck", "address": "10849 81 Avenue NW", "type": "Spray Deck", "surface_type": "Concrete", "accessibility": "Wheelchair Accessible", "neighbourhood_id": 5330.0, "neighbourhood_name": "QUEEN ALEXANDRA" }, "geometry": { "type": "Point", "coordinates": [ -113.510855, 53.516407 ] } },
{ "type": "Feature", "properties": { "id": 3708.0, "name": "Rio Terrace Spray Deck", "address": "7608 - 154 STREET NW T5R1R7", "type": "Spray Deck", "surface_type": "Concrete", "accessibility": "Wheelchair Accessible", "neighbourhood_id": 4430.0, "neighbourhood_name": "RIO TERRACE" }, "geometry": { "type": "Point", "coordinates": [ -113.589781, 53.508253 ] } },
{ "type": "Feature", "properties": { "id": 623.0, "name": "Castle Downs Spray Park", "address": "11520 - 153 AVENUE NW T5X6A3", "type": "Spray Park", "surface_type": "Pour In Place Rubber", "accessibility": "Wheelchair Accessible", "neighbourhood_id": 3180.0, "neighbourhood_name": "DUNLUCE" }, "geometry": { "type": "Point", "coordinates": [ -113.525486, 53.616921 ] } },
{ "type": "Feature", "properties": { "id": 3629.0, "name": "Zoie Gardner Spray Deck", "address": "12710 70 Street NW", "type": "Spray Deck", "surface_type": "Concrete", "accessibility": "Wheelchair Accessible", "neighbourhood_id": 2020.0, "neighbourhood_name": "BALWIN" }, "geometry": { "type": "Point", "coordinates": [ -113.450181, 53.585621 ] } },
{ "type": "Feature", "properties": { "id": 636.0, "name": "Royal Gardens Spray Deck", "address": "4030 117 Street NW", "type": "Spray Deck", "surface_type": "Concrete", "accessibility": "Wheelchair Accessible", "neighbourhood_id": 5430.0, "neighbourhood_name": "ROYAL GARDENS" }, "geometry": { "type": "Point", "coordinates": [ -113.535659, 53.478097 ] } },
{ "type": "Feature", "properties": { "id": 3656.0, "name": "Holyrood Spray Deck", "address": "8035 95 Avenue NW", "type": "Spray Deck", "surface_type": "Concrete", "accessibility": "Wheelchair Accessible", "neighbourhood_id": 6310.0, "neighbourhood_name": "HOLYROOD" }, "geometry": { "type": "Point", "coordinates": [ -113.451868, 53.531101 ] } },
{ "type": "Feature", "properties": { "id": 3481.0, "name": "Central McDougall Spray Deck", "address": "10630 109 Avenue NW", "type": "Spray Deck", "surface_type": "Pour In Place Rubber", "accessibility": "Wheelchair Accessible", "neighbourhood_id": 1030.0, "neighbourhood_name": "CENTRAL MCDOUGALL" }, "geometry": { "type": "Point", "coordinates": [ -113.503308, 53.555203 ] } },
{ "type": "Feature", "properties": { "id": 3677.0, "name": "Cy Becker Spray Park", "address": "270 Cy Becker Boulevard NW", "type": "Spray Park", "surface_type": "Concrete", "accessibility": "Wheelchair Accessible", "neighbourhood_id": 2611.0, "neighbourhood_name": "CY BECKER" }, "geometry": { "type": "Point", "coordinates": [ -113.407314, 53.634262 ] } },
{ "type": "Feature", "properties": { "id": 637.0, "name": "Lansdowne Spray Deck", "address": "4915 124 Street NW", "type": "Spray Deck", "surface_type": "Concrete", "accessibility": "Unknown", "neighbourhood_id": 5260.0, "neighbourhood_name": "LANSDOWNE" }, "geometry": { "type": "Point", "coordinates": [ -113.545675, 53.486875 ] } },
{ "type": "Feature", "properties": { "id": 627.0, "name": "John Devoldere Memorial Park Spray Deck", "address": "16415 83 AVENUE NW T5R3V8", "type": "Spray Deck", "surface_type": "Concrete", "accessibility": "Wheelchair Accessible", "neighbourhood_id": 4140.0, "neighbourhood_name": "ELMWOOD" }, "geometry": { "type": "Point", "coordinates": [ -113.605927, 53.516014 ] } },
{ "type": "Feature", "properties": { "id": 3520.0, "name": "Ellerslie Spray Deck", "address": "Edwards Drive - 5 Ave SW", "type": "Spray Deck", "surface_type": "Pour In Place Rubber", "accessibility": "Wheelchair Accessible", "neighbourhood_id": 6211.0, "neighbourhood_name": "ELLERSLIE" }, "geometry": { "type": "Point", "coordinates": [ -113.458667, 53.428916 ] } },
{ "type": "Feature", "properties": { "id": 186.0, "name": "Wellington Spray Deck", "address": "13440 - 132A Street NW", "type": "Spray Deck", "surface_type": "Concrete", "accessibility": "Wheelchair Accessible", "neighbourhood_id": 3430.0, "neighbourhood_name": "WELLINGTON" }, "geometry": { "type": "Point", "coordinates": [ -113.549947, 53.596123 ] } },
{ "type": "Feature", "properties": { "id": 756.0, "name": "Elmwood Community League Spray Deck", "address": "12505 75 STREET NW T5B4K8", "type": "Spray Deck", "surface_type": "Concrete", "accessibility": "Wheelchair Accessible", "neighbourhood_id": 1130.0, "neighbourhood_name": "ELMWOOD PARK" }, "geometry": { "type": "Point", "coordinates": [ -113.456192, 53.581514 ] } },
{ "type": "Feature", "properties": { "id": 2280.0, "name": "Prince Charles Spray Deck", "address": "12033 - 125 STREET NW T5L0S5", "type": "Spray Deck", "surface_type": "Concrete", "accessibility": "Wheelchair Accessible", "neighbourhood_id": 3350.0, "neighbourhood_name": "PRINCE CHARLES" }, "geometry": { "type": "Point", "coordinates": [ -113.536691, 53.574647 ] } },
{ "type": "Feature", "properties": { "id": 3615.0, "name": "Queen Elizabeth Spray Park", "address": "9100 Walterdale Hill NW", "type": "Spray Park", "surface_type": "Pour In Place Rubber", "accessibility": "Wheelchair Accessible", "neighbourhood_id": 5390.0, "neighbourhood_name": "RIVER VALLEY WALTERDALE" }, "geometry": { "type": "Point", "coordinates": [ -113.507481, 53.527211 ] } },
{ "type": "Feature", "properties": { "id": 3698.0, "name": "Brintnell Spray Deck", "address": "210 Brintnell Boulevard NW", "type": "Spray Deck", "surface_type": "Concrete", "accessibility": "Wheelchair Accessible", "neighbourhood_id": 2110.0, "neighbourhood_name": "BRINTNELL" }, "geometry": { "type": "Point", "coordinates": [ -113.408356, 53.619224 ] } },
{ "type": "Feature", "properties": { "id": 3628.0, "name": "Highlands Spray Deck", "address": "11333 62 Street NW", "type": "Spray Deck", "surface_type": "Concrete", "accessibility": "Wheelchair Accessible", "neighbourhood_id": 2330.0, "neighbourhood_name": "HIGHLANDS" }, "geometry": { "type": "Point", "coordinates": [ -113.433563, 53.566965 ] } },
{ "type": "Feature", "properties": { "id": 626.0, "name": "Laurier Heights Spray Deck", "address": "14425 - 85 AVENUE NW", "type": "Spray Deck", "surface_type": "Concrete", "accessibility": "Wheelchair Accessible", "neighbourhood_id": 3270.0, "neighbourhood_name": "LAURIER HEIGHTS" }, "geometry": { "type": "Point", "coordinates": [ -113.569113, 53.516569 ] } },
{ "type": "Feature", "properties": { "id": 3466.0, "name": "Jackie Parker Spray Park", "address": "4540 - 50 STREET NW", "type": "Spray Park", "surface_type": "Concrete", "accessibility": "Wheelchair Accessible", "neighbourhood_id": 6500.0, "neighbourhood_name": "MILL WOODS GOLF COURSE" }, "geometry": { "type": "Point", "coordinates": [ -113.423705, 53.484398 ] } },
{ "type": "Feature", "properties": { "id": 3720.0, "name": "Glastonbury Spray Deck", "address": "1101 Grantham Drive NW", "type": "Spray Deck", "surface_type": "Concrete", "accessibility": "Wheelchair Accessible", "neighbourhood_id": 4720.0, "neighbourhood_name": "GLASTONBURY" }, "geometry": { "type": "Point", "coordinates": [ -113.672206, 53.505663 ] } },
{ "type": "Feature", "properties": { "id": 61.0, "name": "G. Edmund Kelly Spray Park", "address": "15005 - 79 STREET NW", "type": "Spray Park", "surface_type": "Pour In Place Rubber", "accessibility": "Wheelchair Accessible", "neighbourhood_id": 2410.0, "neighbourhood_name": "KILKENNY" }, "geometry": { "type": "Point", "coordinates": [ -113.462395, 53.611912 ] } },
{ "type": "Feature", "properties": { "id": 631.0, "name": "Queen Alex Spray Deck", "address": "10722 - 73 AVENUE NW", "type": "Spray Deck", "surface_type": "Pour In Place Rubber", "accessibility": "Wheelchair Accessible", "neighbourhood_id": 5330.0, "neighbourhood_name": "QUEEN ALEXANDRA" }, "geometry": { "type": "Point", "coordinates": [ -113.507833, 53.509733 ] } },
{ "type": "Feature", "properties": { "id": 826.0, "name": "Gallagher Spray Deck", "address": "9325 - 97 AVENUE NW", "type": "Spray Deck", "surface_type": "Pour In Place Rubber", "accessibility": "Wheelchair Accessible", "neighbourhood_id": 6070.0, "neighbourhood_name": "CLOVERDALE" }, "geometry": { "type": "Point", "coordinates": [ -113.471814, 53.535919 ] } },
{ "type": "Feature", "properties": { "id": 3812.0, "name": "Callaghan Park Spray Deck", "address": "1385 Cunningham Drive SW", "type": "Spray Deck", "surface_type": "Concrete", "accessibility": "Wheelchair Accessible", "neighbourhood_id": 5457.0, "neighbourhood_name": "CALLAGHAN" }, "geometry": { "type": "Point", "coordinates": [ -113.528292, 53.406211 ] } },
{ "type": "Feature", "properties": { "id": 2621.0, "name": "Woodcroft Spray Deck", "address": "13831 - 114 AVENUE NW", "type": "Spray Deck", "surface_type": "Concrete", "accessibility": "Wheelchair Accessible", "neighbourhood_id": 3450.0, "neighbourhood_name": "WOODCROFT" }, "geometry": { "type": "Point", "coordinates": [ -113.561875, 53.564552 ] } },
{ "type": "Feature", "properties": { "id": 727.0, "name": "Ritchie Spray Deck", "address": "7727 - 98 STREET NW T6E5C9", "type": "Spray Deck", "surface_type": "Pour In Place Rubber", "accessibility": "Wheelchair Accessible", "neighbourhood_id": 6610.0, "neighbourhood_name": "RITCHIE" }, "geometry": { "type": "Point", "coordinates": [ -113.481988, 53.513931 ] } },
{ "type": "Feature", "properties": { "id": 3684.0, "name": "York Spray Deck", "address": "5825 140 Avenue NW", "type": "Spray Deck", "surface_type": "Concrete", "accessibility": "Wheelchair Accessible", "neighbourhood_id": 2720.0, "neighbourhood_name": "YORK" }, "geometry": { "type": "Point", "coordinates": [ -113.431296, 53.602062 ] } },
{ "type": "Feature", "properties": { "id": 633.0, "name": "Lendrum Spray Deck", "address": "11335 57 Avenue NW", "type": "Spray Deck", "surface_type": "Concrete", "accessibility": "Wheelchair Accessible", "neighbourhood_id": 5270.0, "neighbourhood_name": "LENDRUM PLACE" }, "geometry": { "type": "Point", "coordinates": [ -113.524073, 53.494048 ] } },
{ "type": "Feature", "properties": { "id": 735.0, "name": "Gold Bar Spray Deck", "address": "4620 - 105 AVENUE NW", "type": "Spray Deck", "surface_type": "Pour In Place Rubber", "accessibility": "Wheelchair Accessible", "neighbourhood_id": 6270.0, "neighbourhood_name": "GOLD BAR" }, "geometry": { "type": "Point", "coordinates": [ -113.413826, 53.548499 ] } },
{ "type": "Feature", "properties": { "id": 3764.0, "name": "Cameron Heights Spray Deck", "address": "3250 Cameron Heights Way NW", "type": "Spray Deck", "surface_type": "Concrete", "accessibility": "Wheelchair Accessible", "neighbourhood_id": 4466.0, "neighbourhood_name": "CAMERON HEIGHTS" }, "geometry": { "type": "Point", "coordinates": [ -113.636556, 53.473297 ] } },
{ "type": "Feature", "properties": { "id": 730.0, "name": "Mary Finlay Spray Deck", "address": "10150 - 80 STREET NW T6A3H8", "type": "Spray Deck", "surface_type": "Concrete", "accessibility": "Wheelchair Accessible", "neighbourhood_id": 6230.0, "neighbourhood_name": "FOREST HEIGHTS" }, "geometry": { "type": "Point", "coordinates": [ -113.451388, 53.543287 ] } },
{ "type": "Feature", "properties": { "id": 1020.0, "name": "Alberta Avenue Spray Deck", "address": "9210 - 118 AVENUE NW T5G0N2", "type": "Spray Deck", "surface_type": "Concrete", "accessibility": "Wheelchair Accessible", "neighbourhood_id": 1010.0, "neighbourhood_name": "ALBERTA AVENUE" }, "geometry": { "type": "Point", "coordinates": [ -113.483552, 53.571211 ] } },
{ "type": "Feature", "properties": { "id": 728.0, "name": "King Edward Spray Deck", "address": "7708 - 85 STREET NW T6C4K9", "type": "Spray Deck", "surface_type": "Concrete", "accessibility": "Wheelchair Accessible", "neighbourhood_id": 6360.0, "neighbourhood_name": "KING EDWARD PARK" }, "geometry": { "type": "Point", "coordinates": [ -113.460902, 53.513639 ] } },
{ "type": "Feature", "properties": { "id": 2324.0, "name": "Glenora Community Spray Deck", "address": "10410 - 136 STREET NW", "type": "Spray Deck", "surface_type": "Concrete", "accessibility": "Wheelchair Accessible", "neighbourhood_id": 3200.0, "neighbourhood_name": "GLENORA" }, "geometry": { "type": "Point", "coordinates": [ -113.556846, 53.546739 ] } },
{ "type": "Feature", "properties": { "id": 3722.0, "name": "North Glenora Community Spray Deck", "address": "13637 109A Avenue NW", "type": "Spray Deck", "surface_type": "Concrete", "accessibility": "Wheelchair Accessible", "neighbourhood_id": 3310.0, "neighbourhood_name": "NORTH GLENORA" }, "geometry": { "type": "Point", "coordinates": [ -113.557313, 53.55506 ] } },
{ "type": "Feature", "properties": { "id": 622.0, "name": "Athlone Spray Deck", "address": "132 Ave - 127 St", "type": "Spray Deck", "surface_type": "Concrete", "accessibility": "Wheelchair Accessible", "neighbourhood_id": 3010.0, "neighbourhood_name": "ATHLONE" }, "geometry": { "type": "Point", "coordinates": [ -113.545402, 53.589235 ] } },
{ "type": "Feature", "properties": { "id": 2760.0, "name": "Giovanni Caboto Spray Deck", "address": "9403 109A Avenue NW", "type": "Spray Deck", "surface_type": "Concrete", "accessibility": "Wheelchair Accessible", "neighbourhood_id": 1140.0, "neighbourhood_name": "MCCAULEY" }, "geometry": { "type": "Point", "coordinates": [ -113.484154, 53.556191 ] } },
{ "type": "Feature", "properties": { "id": 3670.0, "name": "Meadows Spray Park", "address": "2303 17 Street NW", "type": "Spray Park", "surface_type": "Concrete", "accessibility": "Wheelchair Accessible", "neighbourhood_id": 6442.0, "neighbourhood_name": "SILVER BERRY" }, "geometry": { "type": "Point", "coordinates": [ -113.372115, 53.457937 ] } },
{ "type": "Feature", "properties": { "id": 2321.0, "name": "Kitchener Spray Deck", "address": "11411 - 103 AVENUE NW", "type": "Spray Deck", "surface_type": "Concrete", "accessibility": "Wheelchair Accessible", "neighbourhood_id": 1151.0, "neighbourhood_name": "WÎHKWÊNTÔWIN" }, "geometry": { "type": "Point", "coordinates": [ -113.518681, 53.544412 ] } }
]
}
